Full Library Name,Library Name,Branch Name,Full Address,Address,City,County,State,Zip Code,Type of Library,Mailing Address,Mailing City,Mailing County,Mailing State,Mailing Zip Code,Phone Number,FAX Number,Email Address,Website,Library System Membership,Director's First Name,Director's Last Name,Director's Phone Number,Director's Email,New Georeferenced Column,2010 House Districts,2010 Senate Districts,Counties
George Fox University - Portland Center Library,George Fox University,Portland Center Library,12753 SW 68th Avenue Portland OR 97223-8355,12753 SW 68th Avenue,Portland,,OR,97223-8355,Academic,,,,,,503-554- 6130,503-554-6134,,http://library.georgefox.edu/,,,,,,POINT (-122.746863 45.428239),35,18,724
Cannon Beach Library,Cannon Beach Library,,131 N. Hemlock Cannon Beach OR 97110,131 N. Hemlock,Cannon Beach,Clatsop,OR,97110,Volunteer,PO Box 486 Cannon Beach OR 97110,Cannon Beach,Clatsop,OR,97110,(503) 436-1391,,info@cannonbeachlibrary.org,http://www.cannonbeachlibrary.org,,Buddie,"Anderson, Manager",503-436-1391,,POINT (-123.96087900000002 45.897083),32,16,2318
Jackson County Library Services - Medford Branch Library,Jackson County Library Services,Medford Branch Library,205 S Central Ave Medford OR 97501,205 S Central Ave,Medford,Jackson,OR,97501,Public,OR,,,OR,,(541) 774-8689,(541) 774-6748,info@jcls.org,http://www.jcls.org,NONE,Terra,McLeod,541-774-6554,tmcleod@jcls.org,POINT (-122.870293 42.324522),6,3,2367
Linn County Law Library,Linn County Law Library,,304 Broadalbin St SW Albany OR 97321,304 Broadalbin St SW,Albany,Linn,OR,97321,Special,304 Broadalbin St SW Albany OR 97321,Albany,Linn,OR,97321,(541) 924 - 6902,,aboedigheimer@co.linn.or.us,http://www.co.linn.or.us/Law%20Library/default.htm,,Amber,Boedigheimer,(541) 924 - 6902,aboedigheimer@co.linn.or.us,POINT (-123.10712700000002 44.635804),15,8,2407
Westfir City Library,Westfir City Library,,47441 Westoak Rd Westfir OR 97942,47441 Westoak Rd,Westfir,Lane,OR,97942,Volunteer,PO Box 296 Westfir OR 97942,Westfir,Lane,OR,97942,(541) 782-3733,,westfircity@questoffice.net,,,Dennis,Kromwall,,,POINT (-122.490922 43.757992),7,4,2371
Multnomah County Library - Sellwood-Moreland Library,Multnomah County Library,Sellwood-Moreland Library,7860 SE 13th Ave Portland OR 97202,7860 SE 13th Ave,Portland,Multnomah County,OR,97202,Public,,,,,,(502) 988-5123,,,https://multcolib.org/,NONE,Jenna,Scott,(503)988-5123,jennas@multcolib.org,POINT (-122.65299300000001 45.467789),41,21,2410
Willamette University - J. W. Long Law Library,Willamette University,J. W. Long Law Library,245 Winter St SE Salem OR 97301-3916,245 Winter St SE,Salem,Marion,OR,97301-3916,Academic,245 Winter St SE Salem  97301-3916,Salem,,,97301-3916,503-370-6386,503-375-5426,,http://www.willamette.edu/wucl/longlib/index.html,,Ann,Kitchel,503-375-5345,akitchel@willamette.edu,POINT (-123.03381799999998 44.935336),21,11,2409
Aloha Community Library,Aloha Community Library,,"17455 SW Farmington Rd, Suite 26A Aloha OR 97078","17455 SW Farmington Rd, Suite 26A",Aloha,Washington,OR,97078,Public,P.O. Box 6561 Aloha OR 97007,Aloha,Washington,OR,97007,503-259-0185,,info@alohalibrary.org,http://alohalibrary.org,WCCLS,Terri,Palmer,,volunteer@alohalibrary.org,POINT (-122.85861500000001 45.479285),28,14,724
St. Helens Public Library,St. Helens Public Library,,"375 S 18th St, Ste A St. Helens OR 97051","375 S 18th St, Ste A",St. Helens,Columbia,OR,97051,Public,"375 S 18th St, Ste A St. Helens OR 97051",St. Helens,Columbia,OR,97051,(503) 397-4544,(503) 366-3020,shpl@ci.st-helens.or.us,http://www.ci.st-helens.or.us/library,NONE,Margaret,Jeffries,(503) 397-4544 ext 601,margaretj@ci.st-helens.or.us,POINT (-122.81403899999998 45.854941),31,16,2319
Linfield College - Nicholson Library,Linfield College,Nicholson Library,900 S Baker St McMinnville OR 97128-6894,900 S Baker St,McMinnville,,OR,97128-6894,Academic,,,,,,503-883-2261,503-883-2566,,http://www.linfield.edu/library/,,Ginny,Blackson,503-883-2517,gblackson@linfield.edu,POINT (-123.200574 45.203272),24,12,2453
Deschutes Public Library System - La Pine Library,Deschutes Public Library System,La Pine Library,16425 1st St La Pine OR 97739,16425 1st St,La Pine,Deschutes,OR,97739,Public,16425 1st St La Pine  97739,La Pine,,,97739,541-312-1090,541-536-0752,,http://www.deschuteslibrary.org/lapine/,NONE,Todd,Dunkelberg,,toddd@deschuteslibrary.org,POINT (-121.505098 43.674573),55,28,2362
Sherwood Public Library,Sherwood Public Library,,22560 SW Pine St Sherwood   OR 97140,22560 SW Pine St,Sherwood,Washington,OR,97140,Public,22560 SW Pine St Sherwood OR 97140,Sherwood,Washington,OR,97140,(503) 625-6688,(503) 625-4254,askusSPL@wccls.org,http://www.sherwoodoregon.gov/library,WCCLS,Adrienne,Doman Calkins,(503) 625-4272,calkinsa@sherwoodoregon.gov,POINT (-122.84044800000001 45.356468),26,13,724
Eugene Public Library - Sheldon,Eugene Public Library,Sheldon,1566 Coburg Rd Eugene OR 97401,1566 Coburg Rd,Eugene,Lane County,OR,97401,Public,,,,,,541-682-5450,541-682-5781,LibraryAskUs@ci.eugene.or.us,http://www.eugene-or.gov/library,NONE,Will,O'Hearn,541-682-5363,wohearn@eugene-or.gov,POINT (-123.068119 44.079763),13,7,2371
Multnomah County Library - Gresham Library,Multnomah County Library,Gresham Library,385 NW Miller Ave Gresham OR 97030,385 NW Miller Ave,Gresham,Multnomah County,OR,97030,Public,,,,,,503.988.5123,,,,NONE,Bryan,Fearn,(503)988-5164,bryanf@multcolib.org,POINT (-122.43256700000002 45.500719),50,25,2410
Scio Public Library,Scio Public Library,,38957 NW 1st Scio OR 97374,38957 NW 1st,Scio,Linn,OR,97374,Public,PO Box 37 Scio OR 97374,Scio,,OR,97374,(503) 394-3342,(503) 394-2340,slibrary@smt-net.com,http://ci.scio.or.us/library.htm,NONE,LaVonne,Murray,(503) 394-3342,ci.scio.l.murray@smt-net.com,POINT (-122.84980600000002 44.704709),17,9,2407
Dufur School/Community Library,Dufur School/Community Library,,802 NE Fifth St Dufur   OR 97021,802 NE Fifth St,Dufur,Wasco,OR,97021,Public,802 NE 5th Dufur OR 97021,Dufur,,OR,97021,(541) 467-2509,(541) 467-2589,sarah.tierney@dufur.k12.or.us,http://www.dufur.k12.or.us,NONE,Jack,Henderson,(541) 467-2509,jhender@dufur.k12.or.us,POINT (-121.124682 45.454903),57,29,2451
Reed College - E. V. Hauser Memorial Library,Reed College,E. V. Hauser Memorial Library,3203 SE Woodstock Blvd Portland OR 97202-8199,3203 SE Woodstock Blvd,Portland,Multnomah,OR,97202-8199,Academic,,,,,,503-777-7702,503-777-7786,,https://library.reed.edu/,,Dena,Hutto,503-777-7572,dhutto@reed.edu,POINT (-122.63001 45.479231),41,21,2410
Clackamas Community College Library,Clackamas Community College Library,,19600 Molalla Ave Oregon City OR 97045-7998,19600 Molalla Ave,Oregon City,Clackamas,OR,97045-7998,Academic,,,,,,503-594-6323,503-655-8925,reference@clackamas.edu,http://library.clackamas.edu,,Jane,"Littlefield, Library Department Chair",503-594-3474,jane.littlefield@clackamas.edu,POINT (-122.579593 45.323744),40,20,2317
Portland Community College - Sylvania Campus,Portland Community College,Sylvania Campus,12000 SW 49th Ave Portland OR 97219-7199,12000 SW 49th Ave,Portland,,OR,97219-7199,Academic,PO Box 19000 Portland  97280-0990,Portland,,,97280-0990,971-722-4935,971 722--4977,https://www.pcc.edu/library/about/people/contact/email-a-librarian/,http://www.pcc.edu/library,,Michelle,Bagley,971-722-4497,michelle.bagley@pcc.edu,POINT (-122.727122 45.439574),35,18,2410
Gaston Community Library,Gaston Community Library,,116 Front St Gaston OR 97119,116 Front St,Gaston,Washington,OR,97119,Volunteer,P.O. Box 129 Gaston OR 97119,Gaston,Washington,OR,97119,(503) 985-3464,,gastonlibrarian@comcast.net,http://gastoncommunitylibrary.org,,,,,,POINT (-123.14002300000001 45.437884),32,16,724
Wasco County Library Service District,Wasco County Library Service District,,"511 Washington St., Suite 302 The Dalles OR 97058","511 Washington St., Suite 302",The Dalles,Wasco,OR,97058,Public,722 Court St. The Dalles OR 97058,The Dalles,,OR,97058,(541) 296-2815,(541) 296-4179,,http://wascocountylibrary.com/,WCLSD,Jeff,Wavrunek,(541) 296-2815 ext 3000,jwavrunek@ci.the-dalles.or.us,POINT (-121.18373600000001 45.599418),59,30,2451
Jackson County Library Services - Ruch Branch Library,Jackson County Library Services,Ruch Branch Library,7919 Highway 238 Ruch OR 97530,7919 Highway 238,Ruch,Jackson,OR,97530,Public,,,,,,(541) 899-7438,(541) 899-7438,info@jcls.org,http://www.jcls.org,NONE,Thalia,Truesdell,(541) 899-7438,ttruesdell@jcls.org,POINT (-123.04423800000002 42.237028),5,3,2367
Klamath County Library - Bonanza Branch Library,Klamath County Library,Bonanza Branch Library,31703 Hwy 70 Bonanza OR 97623,31703 Hwy 70,Bonanza,Klamath,OR,97623,Public,PO Box 218 Bonanza  97623,Bonanza,Klamath,,97623,(541) 545-6944,(541) 545-6944,bonanzastaff@klamathlibrary.org,http://www.klamathlibrary.org,NONE,Nathalie,Johnston,(541) 882-8894  ext 23,njohnston@klamathlibrary.org,POINT (-121.40877499999999 42.198748),56,28,2369
Planetree Health Resource Center,Planetree Health Resource Center,,200 E. 4th St. The Dalles OR 97058,200 E. 4th St.,The Dalles,Wasco,OR,97058,Special,200 E. 4th St. The Dalles OR 97058,The Dalles,Wasco,OR,97058,(541) 296-8444,,,http://www.mcmc.net/PlanetreeResources/Default.aspx?blrb=PlanetreeServices.aspx,,Michele,Spatz,(541) 506-6411,micheles@mcmc.net,POINT (-121.184134 45.600513),59,30,2451
New Hope Christian College - Flint Memorial Library,New Hope Christian College,Flint Memorial Library,2155 Bailey Hill Rd. Eugene OR 97405-1194,2155 Bailey Hill Rd.,Eugene,Lane,OR,97405-1194,Academic,,,,,,541-485-1780,541-343-5801,,http://www.newhope.edu/library/,,Jeanie,Chase,541-485-1780  ext 3204,librarian@newhope.edu,POINT (-123.154594 44.034815),14,7,2371
Oregon Historical Society Research Library,Oregon Historical Society Research Library,,1200 SW Park Avenue Portland OR 97205,1200 SW Park Avenue,Portland,Multnomah,OR,97205,Special,1200 SW Park Avenue Portland OR 97205,Portland,Multnomah,OR,97205,(503) 306-5240,,libreference@ohs.org,http://ohs.org,,Shawna,Gandy,(503) 306-5265,Shawna.Gandy@OHS.org,POINT (-122.68247 45.516149),36,18,2410
Chemeketa Community College - Library,Chemeketa Community College,Library,4000 Lancaster Dr NE Salem OR 97309,4000 Lancaster Dr NE,Salem,Marion,OR,97309,Academic,PO Box 14007 Salem  97309,Salem,,,97309,503-399-5043,503-399-5214,,http://library.chemeketa.edu,,Natalie,Beach,,natalie.beach@chemeketa.edu,POINT (-122.98339199999998 44.976331),22,11,2409
Burns Paiute Tribal Library,Burns Paiute Tribal Library,,100 Pasigo St. Burns OR 97720,100 Pasigo St.,Burns,Harney,OR,97720,Tribal,100 Pasigo St. Burns OR 97720,Burns,Harney,OR,97720,,,,,,,,,,POINT (-119.07635600000002 43.611018),60,30,720
Lowell Public Library,Lowell Public Library,,107 E. 3rd St. Lowell OR 97452,107 E. 3rd St.,Lowell,Lane,OR,97452,Public,P.O. Box 490   Lowell OR 97452,Lowell,Lane,OR,97452,(541) 937-2157,(541) 937-2936,jcobb@ci.lowell.or.us,,,Jared,Cobb,,jcobb@ci.lowell.or.us,POINT (-122.78174700000001 43.921842),7,4,2371
Riddle City Library,Riddle City Library,,637 First St Riddle OR 97469,637 First St,Riddle,Douglas County,OR,97469,Volunteer,PO Box 990 Riddle  97469,Riddle,Douglas,,97469,(541) 874-2070,(541) 874-2070,,,NONE,,,,,POINT (-123.35740899999999 42.952351),2,1,2363
University Of Oregon - Knight Library,University Of Oregon,Knight Library,1299 University of Oregon Eugene OR 97403-1299,1299 University of Oregon,Eugene,Lane,OR,97403-1299,Academic,,,,,,541-346-3053,541-346-3485,,http://libweb.uoregon.edu,,Mark,"Watson, Interim",541-346-3056,mrwatson@uoregon.edu,POINT (-123.075694 44.042002),11,6,2371
Albany Public Library,Albany Public Library,,2450 14th Avenue SE Albany OR 97322,2450 14th Avenue SE,Albany,Linn,OR,97322,Public,2450 14th Avenue SE Albany OR 97322,Albany,,OR,97322,(541) 917-7580,(541) 917-7586,AskAlbany@cityofalbany.net,http://library.cityofalbany.net,NONE,Ed,Gallagher,(541) 917-7589,ed.gallagher@cityofalbany.net,POINT (-123.075018 44.628636),15,8,2407
Emma Humphrey Library,Emma Humphrey Library,,150 A St E Vale OR 97918,150 A St E,Vale,Malheur,OR,97918,Public,150 A St E Vale OR 97918,Vale,,OR,97918,(541) 473-3902,,mquintero@cityofvale.com,https://www.cityofvale.com/government/departments/emma-humphrey-library/,NONE,Morgan,Quintero,(541) 473-3902,mquintero@cityofvale.com,POINT (-117.239682 43.981893),60,30,2408
Tillamook Bay Community College,Tillamook Bay Community College,,4301 Third Street Tillamook OR 97141,4301 Third Street,Tillamook,Tillamook County,OR,97141,Academic,4301 Third Street Tillamook  97141,Tillamook,Tillamook County,,97141,503-842-8222 ext. 1720,503 842 8334,,http://tillamookbaycc.edu/library/,,Masyn,Phoenix,503 842 8222 ext 1720,masynphoenix@tillamookbaycc.edu,POINT (-123.813465 45.45691300000001),32,16,2412
Southern Oregon University,Southern Oregon University,,1290 Ashland St Ashland OR 97520-5076,1290 Ashland St,Ashland,Jackson,OR,97520-5076,Academic,1250 Siskiyou Blvd Ashland  97520-5076,Ashland,Jackson,,97520-5076,541-552-6441,541-552-6429,,http://hanlib.sou.edu,,Jeffrey,Gayton,541-552-6833,gaytonj@sou.edu,POINT (-122.69486 42.185462),5,3,2367
Newberg Public Library,Newberg Public Library,,503 E Hancock St Newberg OR 97132,503 E Hancock St,Newberg,Yamhill,OR,97132,Public,503 E Hancock St Newberg OR 97132,Newberg,,OR,97132,(503) 538-7323,,nplibrary@newbergoregon.gov,http://www.newberglibrary.org,CCRLS,Will,Worthey,(503) 537 1256,will.worthey@newbergoregon.gov,POINT (-122.974632 45.301131),25,13,2453
Seaside Public Library,Seaside Public Library,,1131 Broadway  Seaside  OR 97138,1131 Broadway,Seaside,Clatsop,OR,97138,Public,1131 Broadway Seaside OR 97138,Seaside,Clatsop,OR,97138,(503) 738-6742,(503) 738-6552,seasidepl@gmail.com,http://www.seasidelibrary.org,NONE,Esther,Moberg,(503) 738-6742,emoberg@cityofseaside.us,POINT (-123.91914899999999 45.993129),32,16,2318
Concordia University Libraries - FWJ Sylwester Library,Concordia University Libraries,FWJ Sylwester Library,2800 NE Liberty St. Portland OR 97211,2800 NE Liberty St.,Portland,Multnomah,OR,97211,Academic,2811 NE Holman St. Portland  97211-6099,Portland,Multhomah,,97211-6099,503-280-8507,503-280-8518,library@cu-portland.edu,http://www.cu-portland.edu/academics/libraries,,Kim,Read,503-493-6453,kread@cu-portland.edu,POINT (-122.637076 45.570510000000006),43,22,2410
Gutenberg College,Gutenberg College,,1883 University Street Eugene OR 97403,1883 University Street,Eugene,Lane,OR,97403,Academic,,,,,,541-683-5141,541-683-6997,,http://www.gutenberg.edu/student_life/library_services.php,,,,,,POINT (-123.07467400000002 44.039165),11,6,2371
Ontario Library District - Ontario Community Library Bookmobile,Ontario Library District,Ontario Community Library Bookmobile,388 SW 2nd Ave Ontario OR 97914,388 SW 2nd Ave,Ontario,Malheur,OR,97914,Public,388 S.W. 2nd Ave Ontario  97914,Ontario,Malheur,,97914,5418896371,541-889-4279,ontariolibrarydirector@gmail.com,http://www.ontariolibrarydistrict.org,NONE,Darlyne,Johnson,541-889-6371,ontariolibrarydirector@gmail.com,POINT (-116.968141 44.025617),60,30,2408
Klamath County Library - Malin Branch Library,Klamath County Library,Malin Branch Library,2307 Front St Malin OR 97632,2307 Front St,Malin,Klamath,OR,97632,Public,PO Box 525 Malin  97632,Malin,Klamath,,97632,(541) 723-5210,(541) 723-5210,malinstaff@klamathlibrary.org,http://www.klamathlibrary.org,NONE,Nathalie,Johnston,541-882-8894  ext 23,njohnston@klamathlibrary.org,POINT (-121.406894 42.013248000000004),56,28,2369
Nyssa Public Library,Nyssa Public Library,,319 Main St. Nyssa OR 97913,319 Main St.,Nyssa,Malheur,OR,97913,Public,319 Main St Nyssa OR 97913,Nyssa,,OR,97913,(541) 372-2978,(541) 372-0206,nyssalibrary@nyssacity.org,http://www.nyssacity.org/nyssa-library.html,NONE,Faith,Adams,(541) 372-2978,nyssalibrary@nyssacity.org,POINT (-116.99734400000001 43.876781),60,30,2408
Junction City Public Library,Junction City Public Library,,726 Greenwood St Junction City OR 97448,726 Greenwood St,Junction City,Lane,OR,97448,Public,PO Box 280 Junction City OR 97448,Junction City,,OR,97448,(541) 998-8942,(000) 000-0000,fdarling@ci.junction-city.or.us,http://junctioncity.ploud.net/,NONE,Freda,Darling,(541) 998-8942,fdarling@ci.junction-city.or.us,POINT (-123.202607 44.220326),14,7,2371
Oregon Trail Library District - OTLD Heppner Branch,Oregon Trail Library District,OTLD Heppner Branch,444 Main St Heppner OR 97836,444 Main St,Heppner,Morrow,OR,97836,Public,PO Box 325 Heppner  97836,Heppner,,,97836,541-676-9964,541-676-5900,asherman@otld.org,http://oregontrail.ploud.net/,NONE,Kathy,Street,541-481-3365,kstreet@otld.org,POINT (-119.55339100000002 45.356838),57,29,722
Molalla Public Library,Molalla Public Library,,201 E Fifth St Molalla  OR 97038,201 E Fifth St,Molalla,Clackamas,OR,97038,Public,PO Box 1289  Molalla  OR 97038,Molalla,,OR,97038,(503) 829-2593,(503) 759-3486,moref@lincc.lib.or.us,http://www.cityofmolalla.com/library,LINCC,Diana,Hadley,(503) 759-0250,dhadley@lincc.org,POINT (-122.57745 45.143719),18,9,2317
Baker County Public Library - Halfway Branch Library,Baker County Public Library,Halfway Branch Library,260 Gover Lane Halfway OR 97834,260 Gover Lane,Halfway,Baker,OR,97834,Public,PO Box 922 Halfway  97834,Halfway,Baker,,97834,(541) 742-5279,,halfway@bakerlib.org,,NONE,,,,,POINT (-117.108932 44.87537100000001),60,30,2315
Tillamook County Library - Garibaldi Branch Library,Tillamook County Library,Garibaldi Branch Library,107 6th St Garibaldi OR 97118,107 6th St,Garibaldi,Tillamook County,OR,97118,Public,PO Box 485 Garibaldi  97118,Garibaldi,Tillamook County,,97118,503-332-2100,,,,NONE,Norma,Johasson,,,POINT (-123.913976 45.559698),32,16,2412
Klamath County Library - Bly Branch Library,Klamath County Library,Bly Branch Library,61100 Metler St. Bly OR 97622,61100 Metler St.,Bly,Klamath,OR,97622,Public,PO Box 366 Bly  97622,Bly,Klamath,,97622,(541) 353-2299,(541) 353-2299,blystaff@klamathlibrary.org,http://www.klamathlibrary.org,NONE,Nathalie,Johnston,(541) 882-8894  ext 23,njohnston@klamathlibrary.org,POINT (-121.04429399999998 42.394247),55,28,2369
Umpqua Community College Library,Umpqua Community College Library,,1140 Umpqua College Rd. Roseburg OR 97470-0226,1140 Umpqua College Rd.,Roseburg,Douglas,OR,97470-0226,Academic,PO Box 967 Roseburg  97470,Roseburg,Douglas,,97470,541-440-4640,541-440-4637,,http://www.umpqua.edu/library,,Carol,McGeehon,,Carol.McGeehon@umpqua.edu,POINT (-123.333625 43.289031),7,4,2363
Canyonville Library,Canyonville Library,,250 N. Main Street Canyonville OR 97417,250 N. Main Street,Canyonville,Douglas County,OR,97417,Volunteer,PO Box 147 Canyonville  97417,Canyonville,Douglas,,97417,(541) 839-4727,,canyonvillelibrary@gmail.com,,NONE,Linda,Joyce,541-839-4650,canyonvillelibrary@gmail.com,POINT (-123.28061800000002 42.929944000000006),2,1,2363
Washington County Cooperative Library Services - West Slope Community Library,Washington County Cooperative Library Services,West Slope Community Library,3678 SW 78th Ave. Portland OR 97225,3678 SW 78th Ave.,Portland,Washington County,OR,97225,Public,3678 SW 78th Ave Portland   97225,Portland,Washington,,97225,(503) 292-6416,(503) 292-6932,terisab@wccls.org,http://wccls.org,WCCLS,Terisa,Brown,(503) 297-1428,terisab@wccls.org,POINT (-122.75769 45.492698),27,14,724
Multnomah County Library - St. Johns Library,Multnomah County Library,St. Johns Library,7510 N Charleston Ave Portland OR 97203,7510 N Charleston Ave,Portland,Multnomah County,OR,97203,Public,,,,,,,,,,NONE,Susie,Woodward,(503)988-3212,susiew@multcolib.org,POINT (-122.75146400000001 45.590112),44,22,2410
Cornelius Public Library,Cornelius Public Library,,1370 N Adair St Cornelius OR 97113,1370 N Adair St,Cornelius,Washington,OR,97113,Public,1355 N Barlow St Cornelius OR 97113,Cornelius,,OR,97113,(503) 357-4093,(503) 357-7775,library@ci.cornelius.or.us,http://www.ci.cornelius.or.us/library,WCCLS,Karen,Hill,(503) 992-5381,karenh@wccls.org,POINT (-123.054948 45.52092),29,15,724
Hillsboro Public Library - Shute Park Library,Hillsboro Public Library,Shute Park Library,775 SE Tenth Avenue Hillsboro OR 97123,775 SE Tenth Avenue,Hillsboro,Washington,OR,97123,Public,775 SE Tenth Avenue Hillsboro  97123,Hillsboro,,,97123,(503) 615-6500,(503) 615-6501,,https://www.hillsboro-oregon.gov/departments/library,WCCLS,Stephanie,Chase,503 615 6500 ext 6609,stephanie.chase@hillsboro-oregon.gov,POINT (-122.974028 45.514024),29,15,724
Lewis And Clark College - Aubrey R. Watzek Library,Lewis And Clark College,Aubrey R. Watzek Library,0615 SW Palatine Hill Road Portland OR 97219-7899,0615 SW Palatine Hill Road,Portland,,OR,97219-7899,Academic,,,,,,503-768-7274,503-768-7282,,http://library.lclark.edu,,Mark,Dahl,503-768-7339,dahl@lclark.edu,POINT (-122.67256 45.450512),38,19,2410
Lake County Library - Christmas Valley Branch Library,Lake County Library,Christmas Valley Branch Library,57334 Christmas Tree Lane Christmas Valley OR 97641,57334 Christmas Tree Lane,Christmas Valley,Lake,OR,97641,Public,PO Box 87 Christmas Valley  97641,Christmas Valley,Lake,,97641,(541) 576-2336,(541) 576-2336,juliec@lakecountylibrary.org,http://www.lakecountylibrary.org/,NONE,Amy,Hutchinson,(541) 947-6019,amyh@lakecountylibrary.org,POINT (-120.68097599999999 43.239679),55,28,2370
Multnomah County Library,Multnomah County Library,,"919 NE 19th Avenue, Suite 250 Portland OR 97232","919 NE 19th Avenue, Suite 250",Portland,Multnomah,OR,97232,Public,919 NE 19th Avenue Suite 250 Portland OR 97232,Portland,,OR,97232,(503) 988-7870,(503) 988-5441,https://multcolib.org/we-can-help-anything,http://www.multcolib.org,NONE,Vailey,Oehlke,(503) 988 7870,vaileyo@multcolib.org,POINT (-122.646472 45.528299),42,21,2410
Salem Public Library - West Salem Branch Library,Salem Public Library,West Salem Branch Library,395 Glen Creek Road NW Salem OR 97304,395 Glen Creek Road NW,Salem,Marion,OR,97304,Public,P.O. Box 14810 Salem  97309,Salem,Marion,,97309,(503) 588-6301,(503)-588-6397,,,CCRLS,Sarah,Strahl,(503)-588-6084,sstrahl@cityofsalem.net,POINT (-123.04863999999999 44.950174),20,10,723
Port Orford Public Library,Port Orford Public Library,,1421 Oregon St Port Orford OR 97465,1421 Oregon St,Port Orford,Curry,OR,97465,Public,PO Box 130 Port Orford OR 97465,Port Orford,Curry,OR,97465,(541) 332-5622,(541) 332-2140,polibrary2012@gmail.com,http://www.polibrary.org,NONE,Denise,Willms,(541) 332-5622,dwillms@polibrary.org,POINT (-124.497397 42.750164),1,1,2321
Amity Public Library,Amity Public Library,,307 S Trade St Amity OR 97101,307 S Trade St,Amity,Yamhill,OR,97101,Public,PO Box 470 Amity OR 97101,Amity,,OR,97101,(503) 835-8181,,,https://www.cityofamityoregon.org/library,CCRLS,Marcia,Robbins,(503) 835-8181,marcia.robbins@ccrls.org,POINT (-123.20620800000002 45.117191),23,12,2453
Coquille Indian Tribe Library,Coquille Indian Tribe Library,,495 Miluk Dr. Coos Bay OR 97420,495 Miluk Dr.,Coos Bay,Coos,OR,97420,Tribal,3050 Tremont Blvd. North Bend OR 97459,North Bend,Coos,OR,97459,(541) 756-0904,(541) 756-0847,christanner@coquilletribe.org,http://www.coquilletribe.org/citlibrary.htm,,Chris,Tanner,(541) 756-0904 ext 1218,ctanner@coquilletribe.org,POINT (-124.29402300000001 43.358036),9,5,2320
Yachats Public Library,Yachats Public Library,,560 W 7th St. Yachats  OR 97498,560 W 7th St.,Yachats,Lincoln,OR,97498,Public,PO Box 817 Yachats OR 97498,Yachats,,OR,97498,(541) 547-3741,(541) 547-3741,yachatspl@actionnet.net,http://www.yachatsoregon.org,NONE,Janet,Hickam,(541) 547-3741,yachatspl@actionnet.net,POINT (-124.107005 44.314455),9,5,2372
Fern Ridge Library District,Fern Ridge Library District,,88026 Territorial Rd Veneta OR 97487,88026 Territorial Rd,Veneta,Lane,OR,97487,Public,PO Box 397 Veneta OR 97487,Veneta,,OR,97487,(541) 935-7512,(541) 935-8013,staff@fernridgelibrary.org,http://www.fernridgelibrary.org,NONE,Colin,Rea,(541) 935-7512,crea@fernridgelibrary.org,POINT (-123.35157500000001 44.046522),8,4,2371
Monmouth Public Library,Monmouth Public Library,,168 Ecols St. S. Monmouth OR 97361,168 Ecols St. S.,Monmouth,Polk,OR,97361,Public,PO Box 10 Monmouth OR 97361,Monmouth,Polk,OR,97361,(503) 838-1932,(503) 838-3899,,http://www.ci.monmouth.or.us/library,CCRLS,Krist,Obrist,(503) 751-0193,kobrist@ci.monmouth.or.us,POINT (-123.231783 44.847757),20,10,723
Josephine Community Library District - Illinois Valley Branch Library,Josephine Community Library District,Illinois Valley Branch Library,209 West Palmer Cave Junction OR 97523,209 West Palmer,Cave Junction,Josephine,OR,97523,Public,200 NW C Street Grants Pass  97526,Grants Pass,Josephine,,97526,541-592-4778,,,http://www.josephinelibrary.org,NONE,Roberta,"Lee, Branch Manager",,,POINT (-123.64753500000002 42.168362),3,2,2368
Agness Community Library District,Agness Community Library District,,03925 Cougar Lane Agness OR 97406,03925 Cougar Lane,Agness,Curry,OR,97406,Public,PO Box 33 Agness OR 97406,Agness,,OR,97406,(541) 247-6323,(541) 247-6323,Agnesscommunitylibrary@gmail.com,,,Jhanna,Stutzman-Fry,(541) 247-6323,Agnesscommunitylibrary@gmail.com,POINT (-124.06994999999999 42.556862),1,1,2321
Willamina Public Library,Willamina Public Library,,382 NE C St Willamina  OR 97396,382 NE C St,Willamina,Yamhill,OR,97396,Public,PO Box 273 Willamina OR 97396,Willamina,,OR,97396,(503) 876-6182,(503) 876-1121,frosts@ci.willamina.or.us,http://willamina.ccrls.org/,CCRLS,Sarah,Frost,(503) 876-6182,frosts@ci.willamina.or.us,POINT (-123.484883 45.079652),23,12,2453
Stanfield Public Library,Stanfield Public Library,,180 West Coe Ave   Stanfield  OR 97875,180 West Coe Ave,Stanfield,Umatilla,OR,97875,Public,PO Box 489 Stanfield OR 97875,Stanfield,,OR,97875,(541) 449-1254,(541) 449-3264,library@cityofstanfield.com,http://www.stanfieldpubliclibrary.com/,UCSLD,Cecili,Longhorn,(541) 449-1254,librarydirector@cityofstanfield.com,POINT (-119.21869900000002 45.780538),57,29,2413
Cow Creek Band of Umpqua Indians Tribal Library,Cow Creek Band of Umpqua Indians Tribal Library,,2371 Stephens Street Suite 100 Roseburg OR 97470,2371 Stephens Street Suite 100,Roseburg,Douglas,OR,97470,Tribal,2371 Stephens Street Suite 100 Roseburg OR 97470,Roseburg,Douglas,OR,97470,(541) 672-9405,,,,,Tribal Chair,Dan Courtney,,,POINT (-123.35279400000002 43.238649),2,1,2363
Jackson County Library Services - Ashland Branch Library,Jackson County Library Services,Ashland Branch Library,410 Siskiyou Blvd Ashland OR 97520,410 Siskiyou Blvd,Ashland,Jackson,OR,97520,Public,,,,,,(541) 774-6980,(541) 774-6892,info@jcls.org,http://www.jcls.org,NONE,Kristin,Anderson,(541) 774-6987,kanderson@jcls.org,POINT (-122.70954699999999 42.194249),5,3,2367
Warrenton Community Library,Warrenton Community Library,,160 S. Main Ave Warrenton OR 97146,160 S. Main Ave,Warrenton,Clatsop,OR,97146,Public,PO Box 250 Warrenton OR 97146,Warrenton,Clatsop,OR,97146,(503) 861-8156,,library@ci.warrenton.or.us,http://www.ci.warrenton.or.us/library,NONE,Nettie-Lee,Calog,(503) 861-8156,nlcalog@ci.warrenton.or.us,POINT (-123.924954 46.16421),32,16,2318
Jackson County Library Services - Butte Falls Branch Library,Jackson County Library Services,Butte Falls Branch Library,626 Fir Ave. Butte Falls OR 97522,626 Fir Ave.,Butte Falls,Jackson,OR,97522,Public,PO Box 138 Butte Falls  97522,Butte Falls,Jackson,,97522,(541) 865-3511,(541) 865-3511,info@jcls.org,http://www.jcls.org,NONE,LeeAnna,Pierce,(541) 865-3511,lpierce@jcls.org,POINT (-122.567328 42.541728),55,28,2367
Baker County Public Library - Sumpter Branch Library,Baker County Public Library,Sumpter Branch Library,245 S Mill St Sumpter OR 97877,245 S Mill St,Sumpter,Baker,OR,97877,Public,PO Box 67 Sumpter  97877,Sumpter,Baker,,97877,(541) 894-2253,,sumpter@bakerlib.org,,NONE,,,,,POINT (-118.20184900000001 44.744206),60,30,2315
Deschutes Public Library System - Redmond Library,Deschutes Public Library System,Redmond Library,827 SW Deschutes Ave. Redmond OR 97756,827 SW Deschutes Ave.,Redmond,Deschutes,OR,97756,Public,827 SW Deschutes Ave. Redmond  97756,Redmond,,,97756,(541) 312-1050,(541) 548-6358,,http://www.deschuteslibrary.org/redmond/,NONE,Todd,Dunkelberg,(541) 312-1021,toddd@deschuteslibrary.org,POINT (-121.176895 44.273539),53,27,2362
Klamath County Loyd De Lap Law Library,Klamath County Loyd De Lap Law Library,,126 S. Third St. Klamath Falls OR 97601,126 S. Third St.,Klamath Falls,Klamath,OR,97601,Special,126 S. Third St. Klamath Falls OR 97601,Klamath Falls,Klamath,OR,97601,(541) 882-8895 x30,(541) 882-6166,lawlibrary@klamathlibrary.org,https://klamathlibrary.org/loyd-de-lap-law-library,,Nathalie,Johnston,(541) 882-8895 ext 26,njohnston@klamathlibrary.org,POINT (-121.78457699999998 42.222545),56,28,2369
Arlington Public Library,Arlington Public Library,,500 W First St Arlington OR 97812,500 W First St,Arlington,Gilliam,OR,97812,Public,PO Box 339 Arlington  OR 97812,Arlington,,OR,97812,(541) 454-2444,(541) 454-2568,arlingtonpubliclibraryor97812@gmail.com,http://arlington.ploud.net/,NONE,Mary,Mitchell,(541) 454-2444,arlingtonpubliclibraryor97812@gmail.com,POINT (-120.20381 45.717713),57,29,2364
Treasure Valley Community College - Library,Treasure Valley Community College,Library,650 College Blvd Ontario OR 97914-3423,650 College Blvd,Ontario,Malheur,OR,97914-3423,Academic,,,,,,541-881-5929,541-881-2724,librarian@tvcc.cc,https://www.tvcc.cc/library/,,Tara,Dominick,541-881-5928,tdominick@tvcc.cc,POINT (-116.974443 44.022129),60,30,2408
Multnomah County Library - Multnomah County Central Library,Multnomah County Library,Multnomah County Central Library,801 SW 10th Ave Portland OR 97205,801 SW 10th Ave,Portland,Multnomah,OR,97205,Public,205 NE Russell St Portland  97212,Portland,,,97212,,,,,NONE,Angela,Weyrens,503-988-3028,angelaw@multcolib.org,POINT (-122.682466 45.519341),36,18,2410
Coquille Public Library,Coquille Public Library,,105 N Birch St Coquille OR 97423,105 N Birch St,Coquille,Coos,OR,97423,Public,105 N Birch St Coquille OR 97423,Coquille,U.S.A.,OR,97423,(541) 396-2166,,coastlinelibrarynetwork.org/coq,http://www.cclsd.org/libraries,CCLSD,Anne,Conner,(541) 396-2166,aconner@coastlinelibrarynetwork.org,POINT (-124.190756 43.175541),1,1,2320
Sacred Heart Medical Center at RiverBend,Sacred Heart Medical Center at RiverBend,,3333 RiverBend Drive Springfield OR 97477,3333 RiverBend Drive,Springfield,Lane,OR,97477,Special,3333 RiverBend Drive Sacred Heart Medical Center @ RiverBend Springfield OR 97477,Springfield,Lane,OR,97477,(541) 222-2280,(541) 222-2289,libraryshmc@peacehealth.org,http://www.peacehealth.org/Oregon/HIL/hilhome.htm,,Kim,Tyler,(541) 686-7325,ktyler@peacehealth.org,POINT (-123.028655 44.081312),12,6,2371
Multnomah County Library - Gregory Heights Library,Multnomah County Library,Gregory Heights Library,7921 NE Sandy Blvd Portland OR 97213,7921 NE Sandy Blvd,Portland,Multnomah County,OR,97213,Public,,,503.988.5123,,,,,,,NONE,May,Dea,503.988.6963,mayd@multcolib.org,POINT (-122.581067 45.55143),45,23,2410
"Confederated Tribes of Coos, Lower Umpqua & Siuslaw Tribal Library","Confederated Tribes of Coos, Lower Umpqua & Siuslaw Tribal Library",,1245 Fulton Ave. Coos Bay OR 97420,1245 Fulton Ave.,Coos Bay,Coos,OR,97420,Tribal,1245 Fulton Ave. Coos Bay OR 97420,Coos Bay,Coos,OR,97420,(541) 888-1317,,,,,Angela,Bowen,(541) 888-1317,abowen@ctclusi.org,POINT (-124.26536799999998 43.383301),9,5,2320
Western Seminary - Cline-Tunnell Library,Western Seminary,Cline-Tunnell Library,5511 SE Hawthorne Blvd Portland OR 97215-3399,5511 SE Hawthorne Blvd,Portland,,OR,97215-3399,Academic,,,,,,503-517-1840,503-517-1801,library@westernseminary.edu,http://www.westernseminary.edu/library,,Matthew,Thiesen,503-517-1841,mthiesen@westernseminary.edu,POINT (-122.605676 45.511755),46,23,2410
Cottage Grove Public Library,Cottage Grove Public Library,,700 E Gibbs Ave Cottage Grove OR 97424,700 E Gibbs Ave,Cottage Grove,Lane,OR,97424,Public,700 E Gibbs Ave Cottage Grove OR 97424,Cottage Grove,,OR,97424,(541) 942-3828,,library@cottagegrove.org,http://cottagegrove.org/library,NONE,Pete,Barrell,(541) 767-4147,libraryservices@cottagegrove.org,POINT (-123.060682 43.798723),7,4,2371
Lincoln County Library District,Lincoln County Library District,,141 NW 11th Newport OR 97365,141 NW 11th,Newport,Lincoln,OR,97365,Public,PO Box 2027 Newport OR 97365,Newport,,OR,97365,(541) 265-3066,(541) 265-3066,lcld@lincolncolibrarydist.org,https://lincolnlibrary.specialdistrict.org,LCLD,MaryKay,Dahlgreen,(541) 265-3066,marykay.dahlgreen@lincolncolibrarydist.org,POINT (-124.053664 44.644717),10,5,2372
Springfield Public Library,Springfield Public Library,,225 5th St Springfield  OR 97477,225 5th St,Springfield,Lane,OR,97477,Public,225 5th St Springfield OR 97477,Springfield,,OR,97477,(541) 726-3766,(541) 726-3747,library@springfield-or.gov,http://wheremindsgrow.org,NONE,Emily,David,(541) 726-2235,edavid@springfield-or.gov,POINT (-123.01953800000001 44.04732),12,6,2371
Deschutes Public Library System - Sisters Library,Deschutes Public Library System,Sisters Library,110 N Cedar St Sisters OR 97759,110 N Cedar St,Sisters,Deschutes,OR,97759,Public,PO Box 1209 Sisters  97759,Sisters,,,97759,(541) 312-1070,(541) 549-9620,,http://www.deschuteslibrary.org/sisters/,NONE,Todd,Dunkelberg,(541) 312-1021,toddd@deschuteslibrary.org,POINT (-121.54509200000001 44.291693),59,30,2362
North Douglas Library District,North Douglas Library District,,205 West A Ave Drain OR 97435,205 West A Ave,Drain,Douglas County,OR,97435,Public,PO Box 128 Drain  97435,Drain,Douglas,,97435,(541) 836-2648,,info@ndld.org,http://ndld.org,NONE,Miriam,Sisson,541-836-2648,miriam@ndld.org,POINT (-123.316747 43.662094),7,4,2363
Oakridge Public Library,Oakridge Public Library,,48326 E 1st Oakridge OR 97463,48326 E 1st,Oakridge,Lane,OR,97463,Public,PO Box 1410 Oakridge OR 97463,Oakridge,,OR,97463,(541) 782-2258,(541) 782-1081,oakridgelibrary@ci.oakridge.or.us,http://www.ci.oakridge.or.us/,NONE,Georgi,Samuelson,(541) 782-2258 ext 230,oakridgelibrary@ci.oakridge.or.us,POINT (-122.45695099999999 43.74774),7,4,2371
Oregon State University Library - Cascades Campus Library,Oregon State University Library,Cascades Campus Library,1500 SW Chandler Ave Bend OR 97702,1500 SW Chandler Ave,Bend,Deschutes,OR,97702,Academic,1500 SW Chandler Ave Bend OR 97702,Bend,Deschutes,OR,97702,(541) 322-2079,,,http://www.osucascades.edu/library,,Sarah Fay,Philips,(541) 706-2169,sarahfay.philips@osucascades.edu,POINT (-121.333551 44.042142),54,27,2362
Southwestern Oregon Community College - Library,Southwestern Oregon Community College,Library,1988 Newmark Coos Bay OR 97420-2912,1988 Newmark,Coos Bay,Coos,OR,97420-2912,Academic,,,,,,541-888-7270,,library@socc.edu,http://www.socc.edu/library/,,Noelle,Ebert,541-888-7431,noelle.ebert@socc.edu,POINT (-124.255202 43.391675),9,5,2320
Washington County Law Library,Washington County Law Library,,111 NE Lincoln Street Hillsboro Or 97124,111 NE Lincoln Street,Hillsboro,Washington,Or,97124,Special,111 NE Lincoln Street Hillsboro Or 97124,Hillsboro,Washington,Or,97124,(503) 846-8880,(503) 846-3515,lawlibrary@co.washington.or.us,http://www.co.washington.or.us/LawLibrary/index.cfm,,Lee,Van Duzer,(503) 846-8880,lawlibrary@co.washington.or.us,POINT (-122.989303 45.523946),29,15,724
Yamhill County Law Library,Yamhill County Law Library,,536 NE 5th St. McMinnville OR 97128,536 NE 5th St.,McMinnville,Yamhill,OR,97128,Special,535 NE 5th St. McMinnville OR 97128,McMinnville,Yamhill,OR,97128,(503) 434-7444,,library@co.yamhill.or.us,,,Lucy,Huffine,(503) 434-7444,library@co.yamhill.or.us,POINT (-123.19352300000001 45.211433),24,12,2453
Mosier Valley Library,Mosier Valley Library,,203 3rd St Mosier OR 97040,203 3rd St,Mosier,Wasco,OR,97040,Volunteer,PO Box 525 Mosier OR 97040,Mosier,Wasco,OR,97040,541-478-3495,,,,,Glenna McCarger &,Joan Hudson,,,POINT (-122.66707400000001 45.417319),38,19,2317
Hillsboro Public Library - Brookwood Library,Hillsboro Public Library,Brookwood Library,2850 NE Brookwood Parkway Hillsboro OR 97124,2850 NE Brookwood Parkway,Hillsboro,Washington,OR,97124,Public,2850 NE Brookwood Parkway   Hillsboro OR 97124,Hillsboro,,OR,97124,(503) 615-6500,(503) 615-6601,,https://www.hillsboro-oregon.gov/departments/library,WCCLS,Stephanie,Chase,(503) 615-6500 ext 6609,stephanie.chase@hillsboro-oregon.gov,POINT (-122.937032 45.543024),30,15,724
Clatsop Community College - Dora Badollet Library,Clatsop Community College,Dora Badollet Library,1680 Lexington Ave. Astoria OR 97103-3609,1680 Lexington Ave.,Astoria,Clatsop,OR,97103-3609,Academic,1680 Lexington Ave. Astoria  97103-3609,Astoria,Clatsop,,97103-3609,503-338-2462,503-338-2387,,http://lrc.clatsopcc.edu/,,Dan,McClure,503-338-2460,dmcclure@clatsopcc.edu,POINT (-123.821884 46.183485),32,16,2318
Klamath County Library - South Suburban Branch Library,Klamath County Library,South Suburban Branch Library,3625 Summers Lane Klamath Falls OR 97603,3625 Summers Lane,Klamath Falls,Klamath,OR,97603,Public,,,,,,(541) 273-3679,(541) 273-3679,ssubstaff@klamathlibrary.org,http://www.klamathlibrary.org,NONE,Nathalie,Johnston,541-882-8894 ext 26,njohnston@klamathlibrary.org,POINT (-121.737694 42.193271),56,28,2369
Josephine Community Library District - Wolf Creek Branch Library,Josephine Community Library District,Wolf Creek Branch Library,102 Ruth Avenue Wolf Creek OR 97497,102 Ruth Avenue,Wolf Creek,Josephine,OR,97497,Public,200 NW C Street Grants Pass  97526,Grants Pass,Josephine,,97526,541-866-2606,,,,NONE,Alissa,"Donoho, Branch Manager",,,POINT (-123.39686999999999 42.695344),1,1,2368
Corvallis-Benton County Public Library,Corvallis-Benton County Public Library,,645 NW Monroe Ave Corvallis OR 97330,645 NW Monroe Ave,Corvallis,Benton,OR,97330,Public,645 NW Monroe Ave Corvallis OR 97330,Corvallis,,OR,97330,(541) 766-6928,(541) 766-6915,,http://www.cbcpl.net,NONE,Ashlee,Chavez,(541) 766-6910,Ashlee.Chavez@corvallisoregon.gov,POINT (-123.264563 44.56527),16,8,2316
Oregon Institute Of Technology Libraries,Oregon Institute Of Technology Libraries,,3201 Campus Drive Klamath Falls OR 97601-8801,3201 Campus Drive,Klamath Falls,,OR,97601-8801,Academic,3201 Campus Drive Oregon Tech Library - LRC 216 Klamath Falls OR  97601-8801,Klamath Falls,Klamath,,97601-8801,541-885-1772,541-885-1777,libtech@oit.edu,http://www.oit.edu/libraries,,John,Schoppert,541-885-1783,john.schoppert@oit.edu,POINT (-121.78227100000001 42.25421300000001),56,28,2369
Eugene Public Library - Downtown Library,Eugene Public Library,Downtown Library,100 W 10th Ave Eugene OR 97401,100 W 10th Ave,Eugene,Lane,OR,97401,Public,100 W 10th Ave Eugene OR 97401,Eugene,,OR,97401,(541) 682-5450,(541) 682-5898,LibraryAskUs@ci.eugene.or.us,http://www.eugene-or.gov/library,NONE,Will,O'Hearn,(541) 682-5363,wohearn@eugene-or.gov,POINT (-123.09504000000001 44.048842),13,7,2371
Lake Oswego Public Library,Lake Oswego Public Library,,706 4th St Lake Oswego   OR 97034,706 4th St,Lake Oswego,Clackamas,OR,97034,Public,706 4th St Lake Oswego   OR 97034,Lake Oswego,,OR,97034,(503) 636-7628,(503) 635-4171,loref@ci.oswego.or.us,http://lakeoswegolibrary.org,LINCC,Melissa,Kelly,(503) 697-6584,kelly@ci.oswego.or.us,POINT (-122.66698699999999 45.424213),38,19,2317
Jackson County Library Services - Jacksonville Branch Library,Jackson County Library Services,Jacksonville Branch Library,"340 West \C\"" Street"" Jacksonville OR 97530","340 West \C\"" Street""",Jacksonville,Jackson,OR,97530,Public,PO Box 490 Jacksonville  97530,Jacksonville,Jackson,,97530,(541) 899-1665,(541) 899-1665,info@jcls.org,http://www.jcls.org,NONE,Laurel,Prchal,(541) 899-1665,lprchal@jcls.org,POINT (-122.968684 42.315271),5,3,2367
Lake County Library - Paisley Branch Library,Lake County Library,Paisley Branch Library,513 Mill St Paisley OR 97636,513 Mill St,Paisley,Lake,OR,97636,Public,PO Box 99 Paisley  97636,Paisley,Lake,,97636,(541) 943-3911,,janm@lakecountylibrary.org,http://www.lakecountylibrary.org/,NONE,Amy,Hutchinson,541-947-6019,amyh@lakecountylibrary.org,POINT (-120.544083 42.693862),55,28,2370
Pacific Northwest College Of Art - Albert Solheim Library,Pacific Northwest College Of Art,Albert Solheim Library,511 NW Broadway Portland OR 97209,511 NW Broadway,Portland,Multnomah,OR,97209,Academic,511 NW Broadway Portland  97209,Portland,Multnomah,,97209,503-821-8966,,librarian@pnca.edu,http://library.pnca.edu,,Serenity,Ibsen,503-821-8953,sibsen@pnca.edu,POINT (-122.677831 45.527338),33,17,2410
F. Maxine and Thomas W. Cook Memorial Library,F. Maxine and Thomas W. Cook Memorial Library,,2006 4th Street  La Grande OR 97850,2006 4th Street,La Grande,Union,OR,97850,Public,2006 4th Street La Grande OR 97850,La Grande,,OR,97850,(541) 962-1339,,ABonebrake@cityoflagrande.org,http://www.cityoflagrande.org/library,NONE,Aletha,"Bonebrake, Interim",(541) 962-1339,ABonebrake@cityoflagrande.org,POINT (-118.096413 45.329797),58,29,2414
Waldport Public Library,Waldport Public Library,,460 NW Hemlock Waldport OR 97394,460 NW Hemlock,Waldport,Lincoln,OR,97394,Public,PO Box 1357 Waldport  OR 97394,Waldport,Lincoln,OR,97394,(541) 563-5880,(541) 563-6237,waldportlibrary@waldportlibrary.org,http://www.waldportlibrary.org,LCLD,Sue,Bennett,(541) 563-5880,sbennett@waldportlibrary.org,POINT (-124.065931 44.426931),10,5,2372
Winston Library,Winston Library,,440 SE Grape Ave Winston OR 97496,440 SE Grape Ave,Winston,Douglas County,OR,97496,Volunteer,PO Box 638 Winston  97496,Winston,Douglas,,97496,(541) 679-5501,,,https://winston.biblionix.com,NONE,Bob,"Bell, President Friends of Winston Library",,fowlroost@gmail.com,POINT (-123.40718700000001 43.11606100000001),2,1,2363
Oregon City Public Library,Oregon City Public Library,,606 John Adams St. Oregon City  OR 97045,606 John Adams St.,Oregon City,Clackamas,OR,97045,Public,606 John Adams St. Oregon City OR 97045,Oregon City,,OR,97045,(503) 657-8269,,mcole@orcity.org,http://www.orcity.org/library,LINCC,Maureen,Cole,(503) 657-8269  ext 1010,mcole@orcity.org,POINT (-122.60456399999998 45.355579000000006),40,20,2317
Beaverton City Library - Murray Scholls,Beaverton City Library,Murray Scholls,11200 SW Murray Scholls Place Suite 102 Beaverton OR 97007-9702,11200 SW Murray Scholls Place Suite 102,Beaverton,Washington,OR,97007-9702,Public,11200 SW Murray Scholls Place Suite 102 Beaverton OR 97007-9702,Beaverton,Washington,OR,97007-9702,503-644-2197 option 6,(503) 350-3645,librarymail@beavertonoregon.gov,http://www.beavertonlibrary.org,WCCLS,Glenn,Ferdman,(503) 526-3705,gferdman@beavertonoregon.gov,POINT (-122.82781899999999 45.437834),27,14,724
Clatskanie Library District,Clatskanie Library District,,11 Lillich St Clatskanie OR 97016,11 Lillich St,Clatskanie,Columbia,OR,97016,Public,PO Box 577 Clatskanie OR 97016,Clatskanie,,OR,97016,(503) 728-3732,(503) 728-4304,clpublic@clatskanie.com,http://www.clatskanielibrary.org/,NONE,Elizabeth,Kruse,(503) 728-3732,clpublic@clatskanie.com,POINT (-123.20145900000001 46.1051),31,16,2319
Umatilla County Law Library,Umatilla County Law Library,,216 SE 4th Street Pendleton OR 97801,216 SE 4th Street,Pendleton,Umatilla,OR,97801,Special,216 SE 4th Street Room 330 Pendleton OR 97801,Pendleton,Umatilla,OR,97801,(541) 278-6306,,law@umatillacounty.net,,,Beverly,Reid,,,POINT (-118.78338400000001 45.67331800000001),58,29,2413
Tillamook County Library - Bay City Branch Library,Tillamook County Library,Bay City Branch Library,5525 B St Bay City OR 97107,5525 B St,Bay City,Tillamook County,OR,97107,Public,,,,,,503-337-0231,,,,NONE,Debby,Riley,,,POINT (-123.890651 45.524594),32,16,2412
Baker County Public Library - Huntington Branch Library,Baker County Public Library,Huntington Branch Library,55 E. Jefferson Huntington OR 97907,55 E. Jefferson,Huntington,Baker,OR,97907,Public,PO BOX 130 Huntington  97907,Huntington,Baker,,97907,(541) 869-2440,(541) 869-2440,huntington@bakerlib.org,,NONE,,,,,POINT (-117.266963 44.349732),60,30,2315
Tillamook County Library,Tillamook County Library,,1716 Third St Tillamook  OR 97141,1716 Third St,Tillamook,Tillamook,OR,97141,Public,1716 Third St Tillamook OR 97141,Tillamook,,OR,97141,(503) 842-4792,(503) 815-8194,,http://www.tillabook.info,NONE,Sara,Charlton,(503) 842-4792 ext 1707,charlton@co.tillamook.or.us,POINT (-123.84654099999999 45.456324),32,16,2412
Multnomah County Library - Woodstock Library,Multnomah County Library,Woodstock Library,6008 SE 49th Ave Portland OR 97206,6008 SE 49th Ave,Portland,Multnomah County,OR,97206,Public,,,,,,(503)988-5123,(503)988-5173,,,NONE,Carol,Uhte,(503)988-4223,carolu@multcolib.org,POINT (-122.612413 45.478859),42,21,2410
Klamath County Library - Keno Branch Library,Klamath County Library,Keno Branch Library,"15555 Hwy. 66, Space 8 Keno OR 97627","15555 Hwy. 66, Space 8",Keno,Klamath,OR,97627,Public,PO Box 283 Keno  97627,Keno,Klamath,,97627,(541) 273-0750,(541) 273-0750,kenostaff@klamathlibrary.org,http://www.klamathlibrary.org,NONE,Nathalie,Johnston,(541) 882-8894 ext 23,njohnston@klamathlibrary.org,POINT (-121.93179 42.125542),56,28,2369
Garden Home Community Library,Garden Home Community Library,,7475 SW Oleson Rd Portland OR 97223,7475 SW Oleson Rd,Portland,Washington,OR,97223,Public,7475 SW Oleson Rd Portland OR 97223,Portland,,OR,97223,(503) 245-9932,,,http://gardenhomelibrary.org/,WCCLS,Molly,Carlisle,(503) 245-9932,mollyc@wccls.org,POINT (-122.75231300000002 45.466735),27,14,724
Northwest Christian University - E P Kellenberger Library,Northwest Christian University,E P Kellenberger Library,1188 Kincaid Eugene OR 97401-3727,1188 Kincaid,Eugene,Lane,OR,97401-3727,Academic,828 East 11th Ave. Eugene  97401,Eugene,Lane,,97401,541-684-7235,541-684-7333,librarian@nwcu.edu,http://www.nwcu.edu/library,,Steve,Silver,541-684-7237,ssilver@nwcu.edu,POINT (-123.078634 44.046759),11,6,2371
Ukiah Public-School Library,Ukiah Public-School Library,,201 Hill St Ukiah OR 97880,201 Hill St,Ukiah,Umatilla,OR,97880,Public,PO Box 218 Ukiah OR 97880,Ukiah,,OR,97880,(541) 427-3735,(541) 427-3432,,http://ukiahlibrary.weebly.com/,UCSLD,Audrey,Durfey,(541) 427-3735,Audrey.Durfey@ukiah.k12.or.us,POINT (-118.93296200000002 45.13562100000001),58,29,2413
LINCC Library Services - Network,LINCC Library Services - Network,,"1810 Red Soils Court, #110 Oregon City OR 97045","1810 Red Soils Court, #110",Oregon City,Clackamas,OR,97045,Public,"1810 Red Soils Court, #110 Oregon City OR 97045",Oregon City,Clackamas,OR,97045,(503) 723-4888,(503) 655-8238,contact@lincc.org,http://www.lincc.org,LINCC,Kathryn,Kohl,(503) 723-4889,kkohl@lincc.org,POINT (-122.5949 45.33153),40,20,2317
Jackson County Library Services - Rogue River Branch Library,Jackson County Library Services,Rogue River Branch Library,412 E Main St Rogue River OR 97537,412 E Main St,Rogue River,Jackson,OR,97537,Public,,,,,,(541) 864-8850,(541) 864-8871,info@jcls.org,http://www.jcls.org,NONE,Michael,Grutchfield,(541) 864-8859,mgrutchfield@jcls.org,POINT (-123.165542 42.43294),4,2,2367
Confederated Tribes of Siletz Tribal Library,Confederated Tribes of Siletz Tribal Library,,201 S.E. Swan Avenue  Siletz OR 97380,201 S.E. Swan Avenue,Siletz,Lincoln,OR,97380,Tribal,PO Box 549  Siletz OR 97380,Siletz,Lincoln,OR,97380,(541) 444-2532,,,http://www.ctsi.nsn.us,,Robert,Kentta,,,POINT (-123.91665600000002 44.72022700000001),10,5,2372
Tillamook County Library - Tillamook County Library Bookmobile,Tillamook County Library,Tillamook County Library Bookmobile,1716 Third St Tillamook OR 97141,1716 Third St,Tillamook,Tillamook,OR,97141,Public,,,,,,,,,,NONE,,,,,POINT (-123.84654099999999 45.456324),32,16,2412
Sheridan Public Library,Sheridan Public Library,,142 NW Yamhill Street Sheridan OR 97378-1843,142 NW Yamhill Street,Sheridan,Yamhill,OR,97378-1843,Public,PO Box 248 Sheridan OR 97378-1843,Sheridan,Yamhill,OR,97378-1843,(503) 843-3420,(503) 843-2561,pennyt@ccrls.org,https://www.cityofsheridanor.com/library,CCRLS,Frank,"Sheridan, City MGR/Interim Director",(503) 843-6100,fsheridan@cityofsheridanor.com,POINT (-123.39580499999998 45.100298),10,5,2453
Grant County Library - Grant County Bookmobile,Grant County Library,Grant County Bookmobile,507 S Canyon Blvd John Day OR 97845,507 S Canyon Blvd,John Day,Grant County,OR,97845,Public,507 S Canyon Blvd John Day  97845,John Day,Grant County,,97845,541-575-1992,,grant047@ortelco.net,http://www.grantcountylibrary.net,,Vicki,Bond,541-575-1992,grantdir@ortelco.net,POINT (-118.952469 44.410238),60,30,2365
Tualatin Public Library,Tualatin Public Library,,18878 SW Martinazzi Ave Tualatin   OR 97062,18878 SW Martinazzi Ave,Tualatin,Washington,OR,97062,Public,18878 SW Martinazzi Ave Tualatin OR 97062,Tualatin,,OR,97062,(503) 691-3074,(503) 692-3512,librarymail@tualatin.gov,http://www.tualatinoregon.gov/library,WCCLS,Jerianne,Thompson,503-691-3063,JThompson@tualatin.gov,POINT (-122.758747 45.383534),37,19,724
Chetco Community Public Library,Chetco Community Public Library,,405 Alder St Brookings OR 97415,405 Alder St,Brookings,Curry,OR,97415,Public,405 Alder St Brookings OR 97415,Brookings,,OR,97415,(541) 469-7738,(541) 469-6746,,http://www.chetcolibrary.org,NONE,Julie,Retherford,(541) 469-7738,julie@chetcolibrary.org,POINT (-124.276004 42.052487),1,1,2321
Oregon Institute of Technology Libraries - Wilsonville Library,Oregon Institute of Technology Libraries,Wilsonville Library,27500 SW Parkway Ave. Wilsonville OR 97070-9296,27500 SW Parkway Ave.,Wilsonville,,OR,97070-9296,Academic,27500 SW Parkway Ave Wilsonville OR 97070,Wilsonville,,OR,97070,(503) 821-1258,(503) 218-1126,,http://www.oit.edu/libraries/about/collections/wilsonville,,Dawn,Lowe-Wincentsen,503-821-1258,dawn.lowewincentsen@oit.edu,POINT (-122.768345 45.322847),26,13,2317
Roseburg Public Library,Roseburg Public Library,,"1409 NE Diamond Lake Blvd., Ste. 100 Roseburg OR 97470","1409 NE Diamond Lake Blvd., Ste. 100",Roseburg,Douglas,OR,97470,Public,"1409 NE Diamond Lake Blvd., Ste. 100 Roseburg OR 97470",Roseburg,,OR,97470,(541) 492-7050,,library@cityofroseburg.org,http://www.roseburg.publiclibrary.org,NONE,Kris,Wiley,(541) 492-7051,KWiley@cityofroseburg.org,POINT (-123.34049000000002 43.213582),2,1,2363
Clackamas County Library - Oak Lodge Library,Clackamas County Library,Oak Lodge Library,16201 SE McLoughlin Blvd. Oak Grove OR 97267,16201 SE McLoughlin Blvd.,Oak Grove,Clackamas,OR,97267,Public,,,,,,(503) 655-8543,,oaklodge@lincc.org,http://www.clackamas.us/lib,LINCC,Mitzi,Olson,503-655-8570,molson@co.clackamas.or.us,POINT (-122.624156 45.405883),41,21,2317
Maitripa Institute,Maitripa Institute,,1119 SE Market Street Portland OR 97214,1119 SE Market Street,Portland,,OR,97214,Academic,,,,,,503-235-2477,503-231-6408,library@maitripa.org,http://www.maitripa.org/library/,,Linda,Brown,,library@maitripa.org,POINT (-122.654231 45.5108),42,21,2410
Oregon State University - Guin Library,Oregon State University,Guin Library,2030 SE Marine Science Dr Newport OR 97365-5296,2030 SE Marine Science Dr,Newport,Lincoln,OR,97365-5296,Academic,2030 SE Marine Science Dr Newport  97365,Newport,Lincoln,,97365,541-867-0249,,hmsc.library@oregonstate.edu,http://guin.library.oregonstate.edu/,,Mary,Markland,541-867-0108,mary.markland@oregonstate.edu,POINT (-124.04646799999999 44.624529),10,5,2372
Hood River County Library District,Hood River County Library District,,502 State St Hood River OR 97031,502 State St,Hood River,Hood River,OR,97031,Public,502 State St Hood River OR 97031,Hood River,Hood River,OR,97031,541-386-2535,,info@hoodriverlibrary.org,http://www.hoodriverlibrary.org/,NONE,Rachael,Fox,541-387-7062,rachael@hoodriverlibrary.org,POINT (-121.51570499999998 45.708178),52,26,2366
North Bend Public Library,North Bend Public Library,,1800 Sherman Avenue North Bend  OR 97459,1800 Sherman Avenue,North Bend,Coos,OR,97459,Public,1800 Sherman Avenue North Bend OR 97459,North Bend,,OR,97459,(541) 756-0400,(541) 756-1073,hlagasse@coastlinelibrarynetwork.org,http://northbendoregon.us/library,CCLSD,Haley,Lagasse,(541) 756-5442,hlagasse@coastlinelibrarynetwork.org,POINT (-124.22403500000001 43.408901),9,5,2320
Jackson County Library Services - Central Point Branch Library,Jackson County Library Services,Central Point Branch Library,116 South Third Street Central Point OR 97502,116 South Third Street,Central Point,Jackson,OR,97502,Public,,,,,,(541) 664-3228,,info@jcls.org,http://www.jcls.org,NONE,Stephanie,Goodwin,(541) 494-3266,sgoodwin@jcls.org,POINT (-122.914071 42.37382),4,2,2367
Corvallis-Benton County Public Library - Philomath Community Library,Corvallis-Benton County Public Library,Philomath Community Library,1050 Applegate Philomath OR 97370,1050 Applegate,Philomath,Benton,OR,97370,Public,PO Box 400 Philomath  97370,Philomath,Benton,,97370,(541) 929-3016,(541) 929-5934,,http://www.cbcpl.net,NONE,Andrew,Cherbas,,andrew.cherbas@corvallisoregon.gov,POINT (-123.370871 44.539146),16,8,2316
Hermiston Public Library,Hermiston Public Library,,235 E Gladys Ave Hermiston OR 97838,235 E Gladys Ave,Hermiston,Umatilla,OR,97838,Public,235 E Gladys Ave Hermiston OR 97838,Hermiston,,OR,97838,(541) 567-2882,(541) 667-5055,library@hermiston.or.us,http://www.hermistonlibrary.us,UCSLD,Mark,Rose,(541) 667-5050,mrose@hermiston.or.us,POINT (-119.288087 45.841422),57,29,2413
Western Oregon University - Hamersly Library,Western Oregon University,Hamersly Library,345 N Monmouth Ave Monmouth OR 97361-1314,345 N Monmouth Ave,Monmouth,Polk,OR,97361-1314,Academic,,,,,,503-838-8418,503-838-8399,,http://www.wou.edu/provost/library,,Allen,McKiel,503-838-8886,mckiela@wou.edu,POINT (-123.23731699999999 44.851955),20,10,723
Lakeside Public Library,Lakeside Public Library,,915 N Lake Lakeside OR 97449,915 N Lake,Lakeside,Coos,OR,97449,Public,PO Box R Lakeside OR 97449,Lakeside,Coos,OR,97449,(541) 759-4432,(541) 759-4752,cyoung@cclsd.org,http://www.cooslibraries.org,CCLSD,Cheryl,Young,(541) 759-4432,cyoung@coastlinelibrarynetwork.org,POINT (-124.173881 43.575929),9,5,2320
Lane Community College - Library,Lane Community College,Library,4000 E 30th Ave Eugene OR 97405-0640,4000 E 30th Ave,Eugene,Lane County,OR,97405-0640,Academic,4000 E 30th Ave Eugene  97405-0640,Eugene,Lane County,,97405-0640,541-463-5220,541-463-4150,,https://library.lanecc.edu,,Rick,Stoddart,541-463-5824,stoddartr@lanecc.edu,POINT (-123.032681 44.014005),11,6,2371
Astoria Public Library,Astoria Public Library,,450 10th ST Astoria OR 97103,450 10th ST,Astoria,Clatsop,OR,97103,Public,450 10th ST Astoria OR 97103,Astoria,,OR,97103,(503) 325-7323,,comments@astorialibrary.org,http://astorialibrary.org,NONE,Jimmy,Pearson,(503) 298-2450,jpearson@astoria.or.us,POINT (-123.832753 46.188034),32,16,
University of Western States - W. A. Budden Library,University of Western States,W. A. Budden Library,2900 NE 132nd Portland OR 97230-3099,2900 NE 132nd,Portland,,OR,97230-3099,Academic,,,,,,503-251-5752,503-251-5759,,https://www.uws.edu/community/library/,,Janet,Tapper,503-251-5757,jtapper@uws.edu,POINT (-122.527005 45.543486),47,24,2410
Portland Community College - Southeast Campus,Portland Community College - Southeast Campus,,2305 S.E. 82nd Ave. Portland OR 97216,2305 S.E. 82nd Ave.,Portland,Multnomah,OR,97216,Academic,PO Box 19000 Portland OR 97289-0900,Portland,Multnomah,OR,97289-0900,(971) 722-6187,,https://www.pcc.edu/library/about/people/contact/email-a-librarian/,http://www.pcc.edu/library/,,Michelle,Bagley,(971) 722-4497,michelle.bagley@pcc.edu,POINT (-122.578728 45.506208),46,23,2410
Multnomah County Library - Hollywood Library,Multnomah County Library,Hollywood Library,4040 NE Tillamook St Portland OR 97212,4040 NE Tillamook St,Portland,Multnomah,OR,97212,Public,,,,,,,,,,NONE,Martha,Flotten,(503)988-6074,marthafl@multcolib.org,POINT (-122.62153999999998 45.537781),45,23,2410
Klamath Tribal Library,Klamath Tribal Library,,501 Chiloquin Blvd. Chiloquin OR 97624,501 Chiloquin Blvd.,Chiloquin,Klamath,OR,97624,Tribal,PO Box 436 Chiloquin OR 97624,Chiloquin,Klamath,OR,97624,(541) 783-2219,,,,,Tribal Chair,Gary Frost,,,POINT (-121.874112 42.57562),55,28,2369
Langlois Library District,Langlois Library District,,48234 Hwy 101 Langlois OR 97450,48234 Hwy 101,Langlois,Curry,OR,97450,Public,PO Box 277 Langlois OR 97450,Langlois,,OR,97450,(541) 348-2066,(541) 348-2066,langloislibrary@gmail.com,http://www.langloispubliclibrary.org,NONE,Susan,"Orbom, Library Board Chair",(541) 348-2066,orbom.lpl@gmail.com,POINT (-124.450338 42.921326),1,1,2321
National University of Natural Medicine Library,National University of Natural Medicine Library,,049 SW Porter Portland OR 97201-4848,049 SW Porter,Portland,,OR,97201-4848,Academic,,,,,,503-552-1542,503-552-1547,,http://library.nunm.edu/,,Noelle,Stello,503-522-1544,nstello@nunm.edu,POINT (-122.67657 45.501533),36,18,2410
University of Oregon - UO Portland Library and Learning Commons,University of Oregon,UO Portland Library and Learning Commons,70 NW Couch St Portland OR 97209,70 NW Couch St,Portland,Multnomah,OR,97209,Academic,70 NW Couch St Portland OR 97209,Portland,Multnomah,OR,97209,(503) 412-3671,(503) 412-3670,pdxlib@uoregon.edu,http://library.uoregon.edu/portland/index.html,,Karen,Munro,(503) 412-3673,kmunro@uoregon.edu,POINT (-122.67115400000002 45.523873),36,18,2410
Josephine Community Library District - Williams Branch Library,Josephine Community Library District,Williams Branch Library,20695 Williams Highway Williams OR 97544,20695 Williams Highway,Williams,Josephine,OR,97544,Public,200 NW C Street Grants Pass  97526,Grants Pass,Josephine,,97526,541-846-7020,,,http://www.josephinelibrary.org,NONE,Ellie,"Avis, Branch Manager",,,POINT (-123.27363500000001 42.219057),3,2,2368
Sweet Home Public Library,Sweet Home Public Library,,1101 13th Ave  Sweet Home  OR 97386,1101 13th Ave,Sweet Home,Linn,OR,97386,Public,1101 13th Ave Sweet Home OR 97386,Sweet Home,LINN,OR,97386,(541) 367-5007,(541) 367-3754,rpeda@sweethomeor.gov,https://www.sweet-home.or.us/,NONE,Rose,Peda,(541) 367-5007,rpeda@sweethomeor.gov,POINT (-122.72896700000001 44.39642200000001),17,9,2407
Oregon Trail Library District - OTLD Boardman Branch,Oregon Trail Library District,OTLD Boardman Branch,200 S Main Boardman OR 97818,200 S Main,Boardman,Morrow,OR,97818,Public,PO Box 849 Boardman  97818,Boardman,Morrow,,97818,(541) 481-2665,(541) 481-2668,kstreet@otld.org,http://oregontrail.ploud.net/,NONE,Kathy,Street,541-481-3365,kstreet@otld.org,POINT (-119.70076600000002 45.835036),57,29,722
Klamath County Library - Sprague River Branch Library,Klamath County Library,Sprague River Branch Library,23402 Sprague River Rd Sprague River OR 97639,23402 Sprague River Rd,Sprague River,Klamath,OR,97639,Public,PO Box 29 Sprague River  97639,Sprague River,Klamath,,97639,(541) 533-2769,(541) 533-2769,spragueriverstaff@klamathlibrary.org,http://www.klamathlibrary.org,NONE,Nathalie,Johnston,(541) 882-8894  ext 26,njohnston@klamathlibrary.org,POINT (-121.504198 42.455306),55,28,2369
C. Giles Hunt Memorial Library,C. Giles Hunt Memorial Library,,210 E Central Ave Sutherlin OR 97479,210 E Central Ave,Sutherlin,Douglas County,OR,97479,Public,210 E Central Ave Sutherlin  97479,Sutherlin,Douglas,,97479,(541) 459-9161,,SutherlinLibrary@gmail.com,http://www.SutherlinLibrary.org,NONE,Patrick,Lynch,541-459-9161,p.lynch@ci.sutherlin.or.us,POINT (-123.31109399999998 43.390493),7,4,2363
Beaverton City Library,Beaverton City Library,,12375 SW 5th St Beaverton   OR 97005,12375 SW 5th St,Beaverton,Washington,OR,97005,Public,12375 SE 5th St Beaverton  OR 97005,Beaverton,,OR,97005,(503) 644-2197,(503) 574-3436,librarymail@beavertonoregon.gov,http://www.beavertonlibrary.org,WCCLS,Glenn,Ferdman,(503) 526-3705,gferdman@beavertonoregon.gov,POINT (-122.80427 45.483328),27,14,724
Multnomah County Library - Kenton Library,Multnomah County Library,Kenton Library,8226 N. Denver Ave Portland OR 97217,8226 N. Denver Ave,Portland,Multnomah,OR,97217,Public,8226 N. Denver Ave Portland OR 97217,Portland,Multnomah,OR,97217,(503) 988-5123,(503) 988-5441,,http://www.multcolib.org/,NONE,David,Miles,(503) 988-5370,davidm@multcolib.org,POINT (-122.68688799999998 45.582892),44,22,2410
Glendale Community Library,Glendale Community Library,,190 Third Street Glendale OR 97442,190 Third Street,Glendale,Douglas County,OR,97442,Volunteer,PO Box 907 Glendale  97442,Glendale,Douglas,,97442,(541) 832-2360,(541) 832-2360,,,NONE,Charlton,McNutt,541-832-2360,,POINT (-123.42756800000001 42.736703),2,1,2363
Corban University - Library,Corban University,Library,5000 Deer Park Drive SE Salem OR 97317--9392,5000 Deer Park Drive SE,Salem,Marion,OR,97317--9392,Academic,5000 Deer Park Drive SE Salem  97317,Salem,Marion,,97317,503-375-7016,503-375-7196,library@corban.edu,http://inside.corban.edu/library,,Garrett,Trott,503-589-8116,gtrott@corban.edu,POINT (-122.96185 44.88345),19,10,2409
Josephine Community Library District - Grants Pass Main Branch Library,Josephine Community Library District,Grants Pass Main Branch Library,200 NW C Street Grants Pass OR 97526,200 NW C Street,Grants Pass,Josephine,OR,97526,Public,200 NW C Street Grants Pass OR 97526,Grants Pass,Josephine,OR,97526,(541) 476-0571,,info@josephinelibrary.org,http://www.josephinelibrary.org/,NONE,Kate,Lasky,,klasky@josephinelibrary.org,POINT (-123.32688600000002 42.442668),3,2,2368
Mt. Hood Community College - Library,Mt. Hood Community College,Library,26000 SE Stark St Gresham OR 97030-3300,26000 SE Stark St,Gresham,,OR,97030-3300,Academic,,,,,,503-491-7161,503-491-7389,reference@mhcc.edu,http://www.mhcc.edu/library/,,Megan,Dugan,503-491-7652,megan.dugan@mhcc.edu,POINT (-122.39617199999999 45.518941),49,25,2410
Keizer Community Library,Keizer Community Library,,980 Chemawa Road NE Keizer OR 97303,980 Chemawa Road NE,Keizer,Marion,OR,97303,Volunteer,980 Chemawa Road NE Keizer OR 97303,Keizer,Marion,OR,97303,(503) 390-2370,,books.keizerlibrary@gmail.com,http://www.keizerlibrary.org/home,,,,,,POINT (-123.018974 44.99689600000001),25,13,2409
Oregon Health & Science University - Isabel McDonald Library,Oregon Health & Science University,Isabel McDonald Library,505 NW 185th Ave Beaverton OR 97006-3499,505 NW 185th Ave,Beaverton,,OR,97006-3499,Special,,,,,,503-690-5309,503-690-5243,onprclib@ohsu.edu,http://www.ohsu.edu/xd/education/library/about/onprc-isabel-mcdonald-library.cfm?WT_rank=1#,,Denise,Urbanski,(503)690-5309,onprclib@ohsu.edu,POINT (-122.86756800000002 45.52298),30,15,724
Cedar Mill Community Library - Bethany Branch Library,Cedar Mill Community Library,Bethany Branch Library,15325 NW Central Drive Suite J-8 Portland OR 97229,15325 NW Central Drive Suite J-8,Portland,Washington,OR,97229,Public,,,,,,(503) 617-7323,,,http://library.cedarmill.org/,,Marianne,Coalson,(503) 617-7323,MarianneC@wccls.org,POINT (-122.83492900000002 45.554546),33,17,724
Oregon Trail Library District,Oregon Trail Library District,,200 S Main St Boardman OR 97818,200 S Main St,Boardman,Morrow,OR,97818,Public,PO Box 849 Boardman OR 97818,Boardman,,OR,97818,(541) 481-2665,(541) 481-2668,kstreet@otld.org,http://oregontrail.ploud.net,NONE,Kathy,Street,(541) 481-3365,kstreet@otld.org,POINT (-119.70076600000002 45.835036),57,29,722
Baker County Public Library - Richland Branch Library,Baker County Public Library,Richland Branch Library,42008 Moody Rd Richland OR 97870,42008 Moody Rd,Richland,Baker,OR,97870,Public,,,,,,(541) 893-6088,,richland@bakerlib.org,,NONE,,,,,POINT (-117.162934 44.769503),60,30,2315
Columbia County Law Library,Columbia County Law Library,,270 S. First St. St. Helens Or 97051,270 S. First St.,St. Helens,Columbia,Or,97051,Special,PO Box 1400 St. Helens Or 97051,St. Helens,Columbia,Or,97051,(503) 396-5344,,Ccll@columbiacll.org,,,Pam,Davis,,,POINT (-122.797886 45.862699),31,16,2319
Weston Public Library,Weston Public Library,,108 E Main St Weston OR 97886,108 E Main St,Weston,Umatilla,OR,97886,Public,PO Box 550 Weston OR 97886,Weston,Umatilla,OR,97886,(541) 566-2378,,wcolibrary@qwestoffice.net,http://westonpubliclibrary.com,UCSLD,Kathleen,Schmidtgall,(541) 566-2378,wcolibrary@qwestoffice.net,POINT (-118.424765 45.813582),58,29,2413
Deschutes Public Library System - Sunriver Library,Deschutes Public Library System,Sunriver Library,56855 Venture Lane Sunriver OR 97707,56855 Venture Lane,Sunriver,Deschutes,OR,97707,Public,56855 Venture Lane Sunriver  97707,Sunriver,,,97707,(541) 312-1080,(541) 593-9286,,http://www.deschuteslibrary.org/sunriver/,NONE,Todd,Dunkelberg,(541) 312-1080,toddd@deschuteslibrary.org,POINT (-121.434807 43.866245),53,27,2362
Alvadore Community Library,Alvadore Community Library,,90829 Alvadore Road Alvadore OR 97448,90829 Alvadore Road,Alvadore,Lane,OR,97448,Volunteer,PO BOX 36 Junction City OR 97409,Junction City,Lane,OR,97409,(541) 461-4933,,,,,Ramona,Jirkofsky,(541) 689-0044,,POINT (-123.26414700000001 44.12654),8,4,2371
Portland Community College - Rock Creek Campus,Portland Community College,Rock Creek Campus,17705 NW Springville Rd Portland OR 97229,17705 NW Springville Rd,Portland,,OR,97229,Academic,PO Box 19000 Portland  97280-0990,Portland,,,97280-0990,971 722-7413,971 722--5318,https://www.pcc.edu/library/about/people/contact/email-a-librarian/,http://www.pcc.edu/library/,,Michelle,Bagley,971 722-4497,michelle.bagley@pcc.edu,POINT (-122.858845 45.562985),31,16,724
Columbia City Community Library,Columbia City Community Library,,2000 2nd Street Columbia City OR 97018,2000 2nd Street,Columbia City,Columbia County,OR,97018,Volunteer,1840 Second Street PO Box 189 Columbia City OR 97018,Columbia City,Columbia,OR,97018,(503) 366-8020,,ccclibrary@live.com,https://www.freewebs.com/cccomlibrary/,,Catherine,Lundberg,(503) 556-1958,ccclibrary@live.com,POINT (-122.80948 45.891567),31,16,2319
George Fox University - Murdock Learning Resource Center,George Fox University,Murdock Learning Resource Center,416 N Meridian St. Newberg OR 97132-2698,416 N Meridian St.,Newberg,,OR,97132-2698,Academic,,,,,,503-554-2410,503-554-3599,,http://library.georgefox.edu/,,Dan,Ingersoll,503-554-2411,ringersoll@georgefox.edu,POINT (-122.97054900000002 45.30358600000001),25,13,2453
Corvallis-Benton County Public Library - Alsea Community Library,Corvallis-Benton County Public Library,Alsea Community Library,19192 Alsea Hwy Alsea OR 97324,19192 Alsea Hwy,Alsea,Benton,OR,97324,Public,19192 Alsea Hwy Alsea  97324,Alsea,Benton,,97324,(541) 487-5061,(541) 487-5061,,http://www.cbcpl.net,NONE,Andrew,Cherbas,,andrew.cherbas@corvallisoregon.gov,POINT (-123.59386000000002 44.382325),23,12,2316
Rogue Community College - Library,Rogue Community College,Library,3345 Redwood Highway Grants Pass OR 97527-9298,3345 Redwood Highway,Grants Pass,,OR,97527-9298,Academic,,,,,,541-956-7152,541-471-3588,,http://go.roguecc.edu/department/rcc-libraries,,Robert,Felthousen,541-956-7147,RFelthousen@roguecc.edu,POINT (-123.395029 42.414614),3,2,2368
The Dalles-Wasco County Library,The Dalles-Wasco County Library,,722 Court St The Dalles OR 97058,722 Court St,The Dalles,Wasco,OR,97058,Public,722 Court St The Dalles OR 97058,The Dalles,,OR,97058,(541) 296-2815,(541) 296-4179,jwavrunek@ci.the-dalles.or.us,http://wascocountylibrary.com,WCLSD,Jeff,Wavrunek,(541) 506-2042,jwavrunek@ci.the-dalles.or.us,POINT (-121.18591899999998 45.598998),59,30,2451
Multnomah County Library - North Portland Library,Multnomah County Library,North Portland Library,512 N Killingsworth St Portland OR 97217,512 N Killingsworth St,Portland,Multnomah County,OR,97217,Public,,,,,,,,,,NONE,Kirby,McCurtis,(503)988-6280,kirbym@multcolib.org,POINT (-122.671504 45.562702),43,22,2410
Jackson County Library Services - Talent Branch Library,Jackson County Library Services,Talent Branch Library,101 Home St Talent OR 97540,101 Home St,Talent,Jackson,OR,97540,Public,PO Box 597 Talent  97540,Talent,Jackson,,97540,(541) 535-4163,(541) 535-4163,info@jcls.org,http://www.jcls.org,NONE,Patrick,Mathewes,(541) 535-4163,pmathewes@jcls.org,POINT (-122.78948900000002 42.245038),5,3,2367
River Road Santa Clara Volunteer Library,River Road Santa Clara Volunteer Library,,105 Oakleigh Lane Eugene  Or 97404,105 Oakleigh Lane,Eugene,Lane,Or,97404,Volunteer,105 Oakleigh Lane Eugene  Or 97404,Eugene,Lane,Or,97404,(541) 607-1882,,rrscvl@live.com,http://rrscvollib.org,,Cheryl,Coleman,(541) 607-1882,rrscvl@live.com,POINT (-123.119728 44.077983),13,7,2371
Yoncalla Library,Yoncalla Library,,194 Birch Yoncalla OR 97499,194 Birch,Yoncalla,Douglas County,OR,97499,Volunteer,PO Box 157 Yoncalla  97499,Yoncalla,Douglas,,97499,(541) 849-2128,(541) 849-2128,,,NONE,,,,,POINT (-123.284584 43.599819),7,4,2363
Linfield College - Portland Campus Library,Linfield College,Portland Campus Library,2255 NW 22nd Ave Portland OR 97210,2255 NW 22nd Ave,Portland,,OR,97210,Academic,,,,,,503-413-7820,503-229-8016,,,,,,,,POINT (-122.69692700000002 45.539114),33,17,2410
Woodburn Public Library,Woodburn Public Library,,280 Garfield St Woodburn OR 97071,280 Garfield St,Woodburn,Marion,OR,97071,Public,280 Garfield St Woodburn OR 97071,Woodburn,,OR,97071,(503) 982-5262,(503) 982-5258,reference@ci.woodburn.or.us,http://www.woodburnlibrary.org/,CCRLS,John,Hunter,(503) 982-5259,john.hunter@ci.woodburn.or.us,POINT (-122.857981 45.143026),22,11,2409
Multnomah County Library - Troutdale Library,Multnomah County Library,Troutdale Library,2451 SW Cherry Park Rd Troutdale OR 97060,2451 SW Cherry Park Rd,Troutdale,Multnomah,OR,97060,Public,2451 SW Cherry Park Rd Troutdale OR 97060,Troutdale,Multnomah,OR,97060,(503) 988-5123,(503) 988-5441,,http://www.multcolib.org/,NONE,Sarah,Oliver,(503) 988-6433,saraho@multcolib.org,POINT (-122.40932900000001 45.529116),49,25,2410
Sandy Public Library,Sandy Public Library,,38980 Proctor Blvd  Sandy  OR 97055,38980 Proctor Blvd,Sandy,Clackamas,OR,97055,Public,38980 Proctor Blvd   Sandy OR 97055,Sandy,,OR,97055,(503) 668-5537,(503) 668-3153,saref@lincc.org,http://www.ci.sandy.or.us/library,LINCC,Sarah,McIntyre,(503) 668-5537,smcintyre@ci.sandy.or.us,POINT (-122.261898 45.39729700000001),52,26,2317
Klamath County Library - Senior Center Branch Library,Klamath County Library,Senior Center Branch Library,2045 Arthur Street Klamath Falls OR 97603,2045 Arthur Street,Klamath Falls,Klamath,OR,97603,Public,126 South Third Street Klamath Falls OR 97601,Klamath Falls,Klamath,OR,97601,(541) 205-8220,,seniorcenterstaff@klamathlibrary.org,http://www.klamathlibrary.org,NONE,Nathalie,Johnston,(541) 882-8894  ext 23,njohnston@klamathlibrary.org,POINT (-121.74869699999999 42.209432),56,28,2369
North Plains Public Library,North Plains Public Library,,31334 NW Commercial St. North Plains OR 97133,31334 NW Commercial St.,North Plains,Washington,OR,97133,Public,31360 NW Commercial St. North Plains OR 97133,North Plains,,OR,97133,(503) 647-5051,(503) 647-5043,info@nplibrary.org,http://www.nplibrary.org,WCCLS,Eric,"Danko, Interim",(503) 647-5051,ericd@wccls.org,POINT (-122.999644 45.597653),30,15,724
McMinnville Public Library - McMinnville Public Library Bookmobile,McMinnville Public Library,McMinnville Public Library Bookmobile,225 NW Adams McMinnville OR 97128,225 NW Adams,McMinnville,Yamhill,OR,97128,Public,,,,,,(503) 435-5550,,libref@mcminnvilleoregon.gov,http://www.maclibrary.org,CCRLS,Jenny,Berg,(503) 435-5550,jenny.berg@mcminnvilleoregon.gov,POINT (-123.199131 45.209385),24,12,2453
Deschutes Public Library System - Downtown Bend Library,Deschutes Public Library System,Downtown Bend Library,601 NW Wall St Bend OR 97703,601 NW Wall St,Bend,Deschutes,OR,97703,Public,,,,,,541-617-7050,541-617-7059,,http://www.deschuteslibrary.org/bend/,NONE,Todd,Dunkelberg,541-312-1021,toddd@deschuteslibrary.org,POINT (-121.316221 44.057125),54,27,2362
Siuslaw Public Library District,Siuslaw Public Library District,,1460 9th St Florence  OR 97439,1460 9th St,Florence,Lane,OR,97439,Public,1460 9th Street Florence OR 97439,Florence,,OR,97439,(541) 997-3132,(541) 997-6473,ref@siuslawlibrary.org,http://www.siuslawlibrary.info/,NONE,Megan,Spencer,(541) 997-3132 ext 211,meg@siuslawlibrary.org,POINT (-124.104617 43.974658),9,5,2371
Eugene Public Library - Bethel,Eugene Public Library,Bethel,1990 Echo Hollow Rd. Eugene OR 97402,1990 Echo Hollow Rd.,Eugene,Lane County,OR,97402,Public,,,,,,541-682-5450,541-682-5770,LibraryAskUs@ci.eugene.or.us,http://www.eugene-or.gov/library,NONE,Will,O'Hearn,541-682-5363,wohearn@eugene-or.gov,POINT (-123.168118 44.083514),14,7,2371
Harrisburg Public Library,Harrisburg Public Library,,354 Smith St Harrisburg  OR 97446,354 Smith St,Harrisburg,Linn,OR,97446,Public,PO Box 378 Harrisburg OR 97446,Harrisburg,,OR,97446,(541) 995-6949,(541) 995-9244,cspangler@ci.harrisburg.or.us,http://www.ci.harrisburg.or.us/library,NONE,Cheryl,Spangler,(541) 995-6949,cspangler@ci.harrisburg.or.us,POINT (-123.17027300000001 44.272322),11,6,2407
Warner Pacific University - Otto F. Linn Library,Warner Pacific University,Otto F. Linn Library,2219 SE 68th Ave Portland OR 97215-4099,2219 SE 68th Ave,Portland,,OR,97215-4099,Academic,,,,,,503-517-1102,503-517-1351,library@warnerpacific.edu,http://www.warnerpacific.edu/academics/library/,,Dr. Lishi,Kwasitsu,503-517-1023,lkwasitsu@warnerpacific.edu,POINT (-122.59370900000002 45.506759),46,23,2410
Columbia Gorge Community College Library,Columbia Gorge Community College Library,,400 E Scenic Drive The Dalles OR 97058-3434,400 E Scenic Drive,The Dalles,Wasco,OR,97058-3434,Academic,,,,,,541-506-6081,541-506-6082,library@cgcc.edu,http://www.cgcc.edu/library,,Dylan,McManus,541-506-6080,dmcmanus@cgcc.edu,POINT (-121.188071 45.590614),59,30,2451
Cove Public Library,Cove Public Library,,606 Main St Cove OR 97824,606 Main St,Cove,Union,OR,97824,Volunteer,PO Box 31 Cove OR 97824,Cove,Union,OR,97824,(541) 568-5001,,,http://coveoregon.org/cove-library/,,Mary Jane,Johnson,,,POINT (-117.81143100000001 45.296965),58,29,2414
Oregon College Of Oriental Medicine,Oregon College Of Oriental Medicine,,75 NW Couch Street Portland OR 97209,75 NW Couch Street,Portland,,OR,97209,Academic,,,,,,503-253-3443 x 132,,librarian@ocom.edu,https://library.ocom.edu/,,Candise,Branum,503-253-3443  ext 134,cbranum@ocom.edu,POINT (-122.67105600000001 45.523872),36,18,2410
Myrtle Creek Library,Myrtle Creek Library,,231 Division Street Myrtle Creek OR 97457,231 Division Street,Myrtle Creek,Douglas County,OR,97457,Volunteer,PO Box 57 Myrtle Creek  97457,Myrtle Creek,Douglas,,97457,(541) 863-5945,(541) 863-5945,,,NONE,,,,,POINT (-123.284713 43.027478),2,1,2363
Lyons Public Library,Lyons Public Library,,279 Eighth Street Lyons OR 97358,279 Eighth Street,Lyons,Linn,OR,97358,Public,448 Cedar Lyons OR 97358,Lyons,Linn,OR,97358,(503) 859-2366,0,lyonspl@ccrls.org,http://lyons.ccrls.org/,CCRLS,Brenda,Harris,(503) 859-2366,bharris@ccrls.org,POINT (-122.61316200000002 44.774936),17,9,2407
Benton County Law Library,Benton County Law Library,,559 NW Monroe Avenue Corvallis OR 97330,559 NW Monroe Avenue,Corvallis,Benton,OR,97330,Special,4077 SW Research Way Sunset Building Corvallis OR 97333,Corvallis,Benton,OR,97333,(541) 766-6673,,martha.a.jenkins@co.benton.or.us,http://www.co.benton.or.us/boc/law_library.php,,Martha,Jenkins,(541) 766-6673,martha.a.jenkins@co.benton.or.us,POINT (-123.263818 44.565082),16,8,2316
Multnomah County Library - Albina Library,Multnomah County Library,Albina Library,3605 NE 15th Ave Portland OR 97212,3605 NE 15th Ave,Portland,Multnomah,OR,97212,Public,,,,,,5039885123,,,,NONE,Lisa,White,(503)988-4441,lisawh@multcolib.org,POINT (-122.650397 45.548888),43,22,2410
Marion County Law Library,Marion County Law Library,,234 High Street SE Salem OR 97301,234 High Street SE,Salem,Marion,OR,97301,Special,PO Box 14500 Marion County Law Library Salem OR 97309-5036,Salem,Marion,OR,97309-5036,(503) 588-5090,(503) 373-4386,lawlibrary@co.marion.or.us,http://www.co.marion.or.us/LC/LawLibrary,,Jon,Brenner,(503) 588-5090,JBrenner@co.marion.or.us,POINT (-123.038165 44.937709),21,11,2409
Pilot Rock Public Library,Pilot Rock Public Library,,144 N. Alder Pl Pilot Rock OR 97868,144 N. Alder Pl,Pilot Rock,Umatilla,OR,97868,Public,PO Box 520 Pilot Rock OR 97868,Pilot Rock,,OR,97868,(541) 443-3285,(541) 443-2253,pilotrockpl@centurytel.net,http://www.pilotrockpubliclibrary.weebly.com,UCSLD,Susan,Price,(541) 443-3285,pilotrockpl@centurytel.net,POINT (-118.83370100000002 45.4831),58,29,2413
Central Oregon Community College,Central Oregon Community College,,2600 NW College Way Bend OR 97703-5998,2600 NW College Way,Bend,,OR,97703-5998,Academic,2600 NW College Way Bend  97703,Bend,,,97703,541-383-7560,541-383-7507,,http://www.cocc.edu/Library/,,Tina,Hovekamp,541-383-7295,thovekamp@cocc.edu,POINT (-121.34785000000001 44.069575),54,27,2362
Spray Public/School Library,Spray Public/School Library,,303 Park Ave. Spray OR 97874,303 Park Ave.,Spray,Wheeler,OR,97874,Public,PO Box 230 Spray OR 97874,Spray,,OR,97874,(541) 468-2226,(541) 468-2630,ljohnson@spray.k12.or.us,,NONE,Larry,Johnson,(541) 468-2226,ljohnson@spray.k12.or.us,POINT (-119.793004 44.833654),59,30,2452
Jackson County Library Services - Prospect Branch Library,Jackson County Library Services,Prospect Branch Library,150 Mill Creek Dr Prospect OR 97536,150 Mill Creek Dr,Prospect,Jackson,OR,97536,Public,,,,,,(541) 560-3668,(541) 560-3668,info@jcls.org,http://www.jcls.org,NONE,LeeAnna,Pierce,(541) 560-3668,lpierce@jcls.org,POINT (-122.48871700000001 42.753468),55,28,2367
Jackson County Genealogy Library,Jackson County Genealogy Library,,3405 South Pacific Highway Medford OR 97501,3405 South Pacific Highway,Medford,Jackson,OR,97501,Special,3405 South Pacific Highway Medford OR 97501,Medford,,OR,97501,(541) 512-2340,,info@rvgslibrary.org,http://www.rvgslibrary.org,,Chloe,Sternola,(541) 512-2340,annebilleteroregon@gmail.com,POINT (-122.835716 42.289451),5,3,2367
Halsey City Library,Halsey City Library,,773 W 1st Street Halsey OR 97348,773 W 1st Street,Halsey,Linn,OR,97348,Public,PO Box 10 Halsey OR 97348,Halsey,Linn,OR,97348,(541) 369-2705,(541) 369-2521,library@cityofhalsey.com,http://www.cityofhalsey.com/library.htm,,Jorden,Parrish,(541) 369-2705,library@cityofhalsey.com,POINT (-123.10886999999998 44.383557),11,6,2407
Blue Mountain Community College,Blue Mountain Community College,,2411 NW Carden Ave Pendleton OR 97801-1000,2411 NW Carden Ave,Pendleton,Umatilla,OR,97801-1000,Academic,PO Box 100 Pendleton  97801,Pendleton,Umatilla,,97801,541- 278-5915,,onlinelibrary@bluecc.edu,http://www.bluecc.edu/library,,Brittany,Young,541-278-5912,byoung@bluecc.edu,POINT (-118.81383 45.675622),58,29,2413
Process Work Institute - GRADUATE SCHOOL,Process Work Institute,GRADUATE SCHOOL,2049 NW Hoyt St Portland OR 97209,2049 NW Hoyt St,Portland,,OR,97209,Academic,,,,,,503-223-8188,503-227-7003,,https://www.processwork.edu,,Jennifer,Keyser,,library@processwork.edu,POINT (-122.69353 45.527034),36,18,2410
North Powder City Library,North Powder City Library,,290 E St North Powder OR 97867,290 E St,North Powder,Union,OR,97867,Public,PO Box 309 North Powder OR 97867,North Powder,,OR,97867,(541) 898-2175,(541) 898-2175,npcitylibrary1@gmail.com,https://sagelib.org/member/north-powder-city-library,NONE,Maggie,Guthrie,(541) 898-2175,npcitylibrary1@gmail.com,POINT (-117.920729 45.029187),58,29,2414
Klamath County Library - Chiloquin Branch Library,Klamath County Library,Chiloquin Branch Library,140 1st Street Chiloquin OR 97624,140 1st Street,Chiloquin,Klamath,OR,97624,Public,PO Box 666 Chiloquin  97624,Chiloquin,Klamath,,97624,(541) 783-3315,(541) 783-3315,chiloquinstaff@klamathlibrary.org,http://www.klamathlibrary.org,NONE,Nathalie,Johnston,(541) 882-8894 ext 23,njohnston@klamathlibrary.org,POINT (-121.600666 42.024938),56,28,2369
State Library of Oregon,State Library of Oregon,,250 Winter St. NE Salem OR 97301,250 Winter St. NE,Salem,Marion,OR,97301,Special,250 Winter St. NE Salem OR 97301,Salem,Marion,OR,97301,(503) 378-5030,(503) 585-8059,,http://www.oregon.gov/OSL/,,Jennifer,Patterson,(503) 378-4367,jennifer.l.patterson@state.or.us,POINT (-123.031504 44.940029),21,11,2409
Crook County Library,Crook County Library,,175 NW Meadow Lakes Dr Prineville OR 97754,175 NW Meadow Lakes Dr,Prineville,Crook,OR,97754,Public,175 NW Meadow Lakes Dr Prineville OR 97754,Prineville,,OR,97754,(541) 447-7978,(541) 447-1308,library@crooklib.org,http://www.crooklib.org,NONE,Buzzy,Nielsen,(541) 447-7978 ext 314,bnielsen@crooklib.org,POINT (-120.856965 44.301532),55,28,719
Union Carnegie Public Library,Union Carnegie Public Library,,182 N Main St Union  OR 97883,182 N Main St,Union,Union,OR,97883,Public,PO Box 928 Union OR 97883,Union,,OR,97883,(541) 562-5811,(541) 562-2028,library@cityofunion.com,,NONE,Louise,Shelden,(541) 562-5811,library@cityofunion.com,POINT (-117.865489 45.209771),58,29,2414
Hood River County Library District - Cascade Locks Branch Library,Hood River County Library District,Cascade Locks Branch Library,300 SW Wa-Na-Pa Street Cascade Locks OR 97014,300 SW Wa-Na-Pa Street,Cascade Locks,Hood River County,OR,97014,Public,502 State St Hood River  97031,Hood River,Hood River,,97031,541-374-9317,,info@hoodriverlibrary.org,http://www.hoodriverlibrary.org/,NONE,,,,,POINT (-121.89363400000002 45.668459),52,26,2366
Columbia Basin Fish & Wildlife Library (fka StreamNet Library),Columbia Basin Fish & Wildlife Library (fka StreamNet Library),,"700 N.E. Multnomah St., Suite 515 Portland OR 97232","700 N.E. Multnomah St., Suite 515",Portland,Multnomah,OR,97232,Special,700 N.E. Multnomah St Suite 1200 Portland OR 97232,Portland,Multnomah,OR,97232,(503) 238-0667,,Fishlib@critfc.org,http://www.streamnetlibrary.org,,Tami,Wilkerson,(503) 736-3581,twilkerson@critfc.org,POINT (-122.65816600000001 45.531498),43,22,2410
Tigard Public Library,Tigard Public Library,,13500 SW Hall Blvd Tigard OR 97223,13500 SW Hall Blvd,Tigard,Washington,OR,97223,Public,13500 SW Hall Blvd Tigard OR 97223,Tigard,Washington,OR,97223,(503) 684-6537,(503) 598-7515,,http://www.tigard-or.gov/library,WCCLS,Halsted,Bernard,(503) 718-2501,halstedb@tigard-or.gov,POINT (-122.765724 45.421846),35,18,724
Multnomah County Library - Fairview-Columbia Library,Multnomah County Library,Fairview-Columbia Library,1520 NE Village St. Fairview OR 97024,1520 NE Village St.,Fairview,Multnomah,OR,97024,Public,,,,,,503.988.5123,,,,NONE,Kylie,Park,503.988.5540,kyliehp@multco.us,POINT (-122.439482 45.532236),49,25,2410
Jackson County Library Services - Eagle Point Branch Library,Jackson County Library Services,Eagle Point Branch Library,239 West Main St Eagle Point OR 97524,239 West Main St,Eagle Point,Jackson,OR,97524,Public,PO Box 459 Eagle Point  97524,Eagle Point,Jackson,,97524,(541) 826-3313,(541) 826-3313,info@jcls.org,http://www.jcls.org,NONE,Charlene,Prinsen,(541) 826-3313,cprinsen@jcls.org,POINT (-122.80497700000001 42.473635),4,2,2367
Lake County Library - Silver Lake Branch Library,Lake County Library,Silver Lake Branch Library,65522 Highway 31 Silver Lake OR 97638,65522 Highway 31,Silver Lake,Lake,OR,97638,Public,PO Box 87 Silver Lake  97638,Silver Lake,Lake,,97638,(541) 576-2146,,rosav@lakecountylibrary.org,,NONE,Amy,Hutchinson,541-947-6019,amyh@lakecountylibrary.org,POINT (-121.048596 43.127871),55,28,2370
Umatilla County Special Library District,Umatilla County Special Library District,,211 SW 1st Street Pendleton OR 97801,211 SW 1st Street,Pendleton,Umatilla,OR,97801,Public,PO Box 1689 Pendleton OR 97801,Pendleton,,OR,97801,(541) 276-6449,,director@ucsld.org,http://www.ucsld.org,UCSLD,Erin,McCusker,(541) 276-6449,director@ucsld.org,POINT (-118.78835000000001 45.672223),58,29,2413
Athena Public Library,Athena Public Library,,418 E Main St Athena OR 97813,418 E Main St,Athena,Umatilla,OR,97813,Public,PO Box 450 Athena OR 97813,Athena,,OR,97813,(541) 566-2470,(541) 566-2470,athenalibrary@cityofathena.com,http://athenalibrary.weebly.com/,UCSLD,Kristin,Williams,(541) 566-2470,athenalibrary@cityofathena.com,POINT (-118.48865700000002 45.811707),58,29,2413
Vernonia Public Library,Vernonia Public Library,,701 Weed Ave Vernonia OR 97064,701 Weed Ave,Vernonia,Columbia,OR,97064,Public,701 Weed Ave Vernonia OR 97064,Vernonia,,OR,97064,(503) 429-1818,(503) 429-0729,library@vernonia-or.gov,https://www.vernonia-or.gov/departments/library/,NONE,Shannon,Romtvedt,(503) 429-1818,shannonr@vernonia-or.gov,POINT (-123.19649000000001 45.858083),31,16,2319
Elgin Public Library,Elgin Public Library,,1699 Division Street Elgin OR 97827,1699 Division Street,Elgin,Union,OR,97827,Public,1699 Division Street Elgin OR 97827,Elgin,Union,OR,97827,(541) 437-2860,(541) 437-0997,publiclibrary@cityofelginor.org,https://cityofelgin.godaddysites.com/city-library,NONE,Michele,Timmons,(541) 437-2860,mtimmons@cityofelginor.org,POINT (-117.92658199999998 45.564886),58,29,2414
Mary Gilkey Public Library,Mary Gilkey Public Library,,416 Ferry St Dayton OR 97114,416 Ferry St,Dayton,Yamhill,OR,97114,Public,PO Box 339 Dayton OR 97114,Dayton,,OR,97114,(503) 864-2221,(503) 864-2956,cpark@ci.dayton.or.us,http://www.ci.dayton.or.us,CCRLS,Cyndi,Park,503-864-2221  ext 303,cpark@ci.dayton.or.us,POINT (-123.07752099999999 45.219704),23,12,2453
Leaburg Library,Leaburg Library,,"42888 McKenzie Hwy., Milepost 20 Leaburg OR 97489","42888 McKenzie Hwy., Milepost 20",Leaburg,Lane,OR,97489,Volunteer,PO Box 267 Walterville OR 97489,Walterville,Lane,OR,97489,(541) 896-3112,,,http://www.leaburglibrary.weebly.com,,Marty,Mealey,,,POINT (-122.675605 44.107185),11,6,2371
University Of Portland - Clark Library,University Of Portland,Clark Library,5000 N Willamette Blvd 97203 Portland OR 97203,5000 N Willamette Blvd 97203,Portland,Multnomah,OR,97203,Academic,,,,,,503-943-7111,503-943-7491,library@up.edu,http://library.up.edu,,Xan,Arch,503-943-7310,arch@up.edu,POINT (-122.72565800000001 45.574871),44,22,2410
Klamath County Library Service District,Klamath County Library Service District,,126 S Third St Klamath Falls  OR 97601,126 S Third St,Klamath Falls,Klamath,OR,97601,Public,126 S Third St Klamath Falls OR 97601,Klamath Falls,,OR,97601,(541) 882-8895,(541) 882-6166,,http://www.klamathlibrary.org,NONE,Nathalie,Johnston,(541) 882-8894 ext 23,njohnston@klamathlibrary.org,POINT (-121.78457699999998 42.222545),56,28,2369
Estacada Public Library,Estacada Public Library,,825 NW Wade Estacada   OR 97023,825 NW Wade,Estacada,Clackamas,OR,97023,Public,825 NW Wade St.  Estacada OR 97023,Estacada,,OR,97023,(503) 630-8273,,eslibrary@lincc.org,https://www.cityofestacada.org/library,LINCC,Michele,Kinnamon,(503) 630-8273 ext 212,michelek@lincc.org,POINT (-122.33794300000001 45.297152),39,20,2317
Pioneer Pacific College - Library,Pioneer Pacific College,Library,4145 SW Watson Ave #300 Beaverton OR 97005,4145 SW Watson Ave #300,Beaverton,Washington,OR,97005,Academic,4145 SW Watson Ave #300 Beaverton  97005,Beaverton,Washington,,97005,503-682-1862,503-682-6801,,http://www.pioneerpacific.edu,,Pat,Love,,patricia.love@pioneerpacific.edu,POINT (-122.80615000000002 45.489724),34,17,724
Deschutes Public Library District,Deschutes Public Library District,,507 NW Wall St Bend  OR 97703,507 NW Wall St,Bend,Deschutes,OR,97703,Public,507 NW Wall St Bend OR 97703,Bend,,OR,97703,(541) 312-1020,(541) 389-2982,,http://www.deschuteslibrary.org,NONE,Todd,Dunkelberg,(541) 312-1021,toddd@deschuteslibrary.org,POINT (-121.317274 44.056166),54,27,2362
Grant County Library,Grant County Library,,507 S Canyon Blvd John Day  OR 97845,507 S Canyon Blvd,John Day,Grant,OR,97845,Public,507 S Canyon Blvd John Day OR 97845,John Day,,OR,97845,(541) 575-1992,541-575-1380,grant047@ortelco.net,http://www.grantcountylibrary.net,NONE,Vicki,Bond,(541) 575-1992,grantdir@ortelco.net,POINT (-118.952469 44.410238),60,30,2365
Oregon Institute of Technology Libraries - Shaw Historical Library at Oregon Tech,Oregon Institute of Technology Libraries,Shaw Historical Library at Oregon Tech,3201 Campus Drive Klamath Falls OR 97601-8801,3201 Campus Drive,Klamath Falls,Klamath,OR,97601-8801,Academic,3201 Campus Drive Shaw Historical Library Klamath Falls OR 97601-8801,Klamath Falls,Klamath,OR,97601-8801,(541) 885-1686,(541) 885-1777,shawlib@oit.edu,http://www.oit.edu/shaw,,John,Schoppert,541-885-1783,john.schoppert@oit.edu,POINT (-121.78227100000001 42.25421300000001),56,28,2369
Jackson County Library Services - White City Branch Library,Jackson County Library Services,White City Branch Library,3143 Ave C  White City OR 97503,3143 Ave C,White City,Jackson,OR,97503,Public,,,,,,(541) 864-8880,(541) 864-8889,info@jcls.org,http://www.jcls.org,NONE,Patti,Proctor,(541) 864-8884,pproctor@jcls.org,POINT (-122.833529 42.429337),4,2,2367
Pacific Evangelical School of Ministry,Pacific Evangelical School of Ministry,,"11501 SE Sunnyside Rd., Suite 300 Happy Valley OR 97015","11501 SE Sunnyside Rd., Suite 300",Happy Valley,Clackamas,OR,97015,Academic,11501 SE Sunnyside Rd. Suite 300 Happy Valley OR 97015,Happy Valley,Clackamas,OR,97015,(503) 427-0000,,,http://pesm.scoolaid.net/bin/home,,Lynda,Russell,(503) 250-0907,lyndarussell@me.com,POINT (-122.545698 45.432474),48,24,2317
Multnomah County Library - Rockwood Library,Multnomah County Library,Rockwood Library,17917 SE Stark St Portland OR 97233,17917 SE Stark St,Portland,Multnomah County,OR,97233,Public,,,,,,,,,,NONE,David,Lee,503-988-5216,davidl@multcolib.org,POINT (-122.478984 45.519153),50,25,2410
Baker County Public Library,Baker County Public Library,,2400 Resort St Baker City OR 97814,2400 Resort St,Baker City,Baker,OR,97814,Public,2400 Resort St Baker City OR 97814,Baker City,Baker,OR,97814,(541) 523-6419,(541) 523-9088,info@bakerlib.org,http://www.bakerlib.org,NONE,Perry,Stokes,(541) 523-6419,director@bakerlib.org,POINT (-117.828984 44.781058),60,30,2315
Fossil Public Library,Fossil Public Library,,401 Main St Fossil  OR 97830,401 Main St,Fossil,Wheeler,OR,97830,Public,PO Box 467 Fossil OR 97830,Fossil,,OR,97830,(541) 763-2046,(541) 763-2124,libraryfossil46@gmail.com,,NONE,Cathy,Goldsmith,(541) 763-2046,libraryfossil46@gmail.com,POINT (-120.21370800000001 45.0004),59,30,2452
Ione Library District,Ione Library District,,385 West 2nd St Ione OR 97843,385 West 2nd St,Ione,Morrow,OR,97843,Public,PO Box 125 Ione OR 97843,Ione,Morrow,OR,97843,(541)561-9828,,ionelibrary@gmail.com,http://ionepubliclibrary.com,NONE,Kristy Crowell &,"Becky Doherty, Co-Directors",,ionelibrary@gmail.com,POINT (-119.828661 45.500567),57,29,722
Baker County Public Library - Bookmobile,Baker County Public Library,Bookmobile,2400 Resort St Baker City OR 97814,2400 Resort St,Baker City,Baker,OR,97814,Public,,,,,,(541) 403-1390,,bookmobile@bakerlib.org,,NONE,,,,,POINT (-117.828984 44.781058),60,30,2315
Joseph Public Library,Joseph Public Library,,201 N Main St Joseph OR 97846,201 N Main St,Joseph,Wallowa,OR,97846,Public,PO Box 15 Joseph OR 97846,Joseph,,OR,97846,(541) 432-0141,(541) 432-3832,josephpl@eoni.com,http://www.josephoregon.org/library,NONE,Eric,Shoudel,(541) 432-0141,joseph97846@hotmail.com,POINT (-117.22989600000001 45.353393),58,29,2450
Toledo Public Library,Toledo Public Library,,173 NW 7th St Toledo OR 97391,173 NW 7th St,Toledo,Lincoln,OR,97391,Public,173 NW 7th St Toledo OR 97391,Toledo,Lincoln,OR,97391,(541) 336-3132,,toledolibrary@cityoftoledo.org,http://www.cityoftoledo.org/library/,LCLD,Deborah,Trusty,(541) 336-3132 ext 7100,Deborah.Trusty@cityoftoledo.org,POINT (-123.938846 44.625506),10,5,2372
Tillamook County Library - Rockaway Branch Library,Tillamook County Library,Rockaway Branch Library,120 N. Coral  Rockaway OR 97136,120 N. Coral,Rockaway,Tillamook County,OR,97136,Public,,,,,,503-355-2665,,,,NONE,Sue,Luce,,,POINT (-123.94187 45.613541),32,16,2412
Lower Umpqua Library District,Lower Umpqua Library District,,395 Winchester Ave Reedsport OR 97467,395 Winchester Ave,Reedsport,Douglas,OR,97467,Public,395 Winchester Ave Reedsport  97467,Reedsport,,,97467,(541) 271-3500,(541) 271-1027,scousineau@luld.org,https://www.luld.org/,NONE,Sue,Cousineau,(541) 271-3500,scousineau@luld.org,POINT (-124.096175 43.701814),9,5,2363
Multnomah County Library - Holgate Library,Multnomah County Library,Holgate Library,7905 SE Holgate Blvd Portland OR 97206,7905 SE Holgate Blvd,Portland,Multnomah,OR,97206,Public,,,,,,,,,,NONE,Victoria,Oglesbee,(503)988-4230,victoria@multcolib.org,POINT (-122.582112 45.490254),46,23,2410
Sherman County Public/School Library,Sherman County Public/School Library,,65912 High School Loop Moro OR 97039,65912 High School Loop,Moro,Sherman,OR,97039,Public,65912 High School Loop Moro OR 97039,Moro,,OR,97039,(541) 565-3279,(541) 565-3319,mmartin@sherman.k12.or.us,http://shermancountypsl.weebly.com/,NONE,Marylou,Martin,(541) 565-3279,mmartin@sherman.k12.or.us,POINT (-120.741618 45.473106),57,29,2411
Brownsville Community Library,Brownsville Community Library,,146 Spaulding Brownsville OR 97327,146 Spaulding,Brownsville,Linn,OR,97327,Public,PO Box 68 Brownsville OR 97327,Brownsville,,OR,97327,(541) 466-5454,,library@ci.brownsville.or.us,http://www.brownsvillecommunitylibrary.org,NONE,Sherri,Lemhouse,(541) 466 5454,library@ci.brownsville.or.us,POINT (-122.98377899999998 44.394219),11,6,2407
Oregon Coast Community College Library,Oregon Coast Community College Library,,400 SE College Way Newport OR 97366,400 SE College Way,Newport,Lincoln,OR,97366,Academic,400 SE College Way Newport  97366,Newport,,,97366,541-867-8526,,library.services@oregoncoastcc.org,http://www.oregoncoastcc.org/library/,,Darci L.,Adolf,541-867-8527,dadolf@oregoncoastcc.org,POINT (-124.04459200000001 44.603591),10,5,2372
Ledding Library,Ledding Library,,9600 SE Main St Milwaukie OR 97222,9600 SE Main St,Milwaukie,Clackamas County,OR,97222,Public,9600 SE Main St Milwaukie OR 97222,Milwaukie,,OR,97222,(503) 786-7580,,,http://www.milwaukieoregon.gov/library,LINCC,Katie,Newell,(503) 786-7584,newellk@milwaukieoregon.gov,POINT (-122.640676 45.452441),41,21,2317
Multnomah County Library - Midland Regional Library,Multnomah County Library,Midland Regional Library,805 SE 122nd Ave Portland OR 97233,805 SE 122nd Ave,Portland,Multnomah,OR,97233,Public,,,,,,5039885392,,,http://www.multcolib.org/agcy/mid.html,NONE,Michael,Bobish,(503) 988-5744,michaelb@multcolib.org,POINT (-122.537736 45.516259),47,24,2410
University Of Oregon - Institute of Marine Biology Library,University Of Oregon,Institute of Marine Biology Library,63466 Boat Basin Drive Charleston OR 97420-1221,63466 Boat Basin Drive,Charleston,,OR,97420-1221,Academic,PO Box 5389 Charleston  97420,Charleston,,,97420,541-888-2581 X 219,541-888-3391,,,,Barbara,Butler,,butler@uoregon.edu,POINT (-124.328583 43.345474),1,1,2320
Hazel M. Lewis Library,Hazel M. Lewis Library,,511 3rd Ave Powers OR 97466,511 3rd Ave,Powers,Coos,OR,97466,Public,PO Box 559 Powers OR 97466,Powers,,OR,97466,(541) 439-5311,(541) 439-5311,jbedwell@coastlinelibrarynetwork.org,http://info.cclsd.org/pow/,CCLSD,Joanie,Bedwell,(541) 439-5311,jbedwell@coastlinelibrarynetwork.org,POINT (-124.070259 42.88163),1,1,2320
Harney County Library,Harney County Library,,80 West D St Burns OR 97720,80 West D St,Burns,Harney,OR,97720,Public,80 West  D St Burns OR 97720,Burns,,OR,97720,(541) 573-6670,(541) 573-1571,harneycl@harneycountylibrary.org,http://www.harneycountylibrary.org,NONE,Cheryl,Hancock,(541) 573-7339,cheryl@harneycountylibrary.org,POINT (-119.05529 43.592163),60,30,720
Linn-Benton Community College,Linn-Benton Community College,,6500 SW Pacific Blvd. Albany OR 97321-3774,6500 SW Pacific Blvd.,Albany,Linn,OR,97321-3774,Academic,,,,,,541-917-4638,541-917-4692,libref@linnbenton.edu,http://library.linnbenton.edu,,Bryan,Miyagishima,541-917-4646,miyagib@linnbenton.edu,POINT (-123.109852 44.588423),15,8,2407
Klamath County Library - Chemult Branch Library,Klamath County Library,Chemult Branch Library,120 Damon Street Chemult OR 97731,120 Damon Street,Chemult,Klamath,OR,97731,Public,PO Box 155 Chemult  97731,Chemult,Klamath,,97731,(541) 365-2412,(541) 365-2412,chemultstaff@klamathlibrary.org,http://www.klamathlibrary.org,NONE,Nathalie,Johnston,(541) 882-8894 ext 23,njohnston@klamathlibrary.org,POINT (-121.78366300000002 43.214986),55,28,2369
Gladstone Public Library,Gladstone Public Library,,135 E Dartmouth Gladstone OR 97027,135 E Dartmouth,Gladstone,Clackamas,OR,97027,Public,135 E Dartmouth Gladstone OR 97027,Gladstone,,OR,97027,(503) 656-2411,(503) 655-2438,gladstonepubliclibrary@gmail.com,http://gladstonepubliclibrary.org/,LINCC,Mitzi,Olson,(503)557-2779,molson@clackamas.us,POINT (-122.593969 45.380471),40,20,2317
Corvallis-Benton County Public Library - Monroe Community Library,Corvallis-Benton County Public Library,Monroe Community Library,380 N. Fifth St Monroe OR 97456,380 N. Fifth St,Monroe,Benton,OR,97456,Public,PO Box 21 Monroe  97456,Monroe,Benton,,97456,(541) 847-5174,(541) 847-5173,,http://www.cbcpl.net,NONE,Andrew,Cherbas,541-766-6792,andrew.cherbas@corvallisoregon.gov,POINT (-123.29812600000001 44.319108),23,12,2316
Milton-Freewater Public Library,Milton-Freewater Public Library,,8 SW Eighth Ave Milton-Freewater  OR 97862-1501,8 SW Eighth Ave,Milton-Freewater,Umatilla,OR,97862-1501,Public,8 SW Eighth Ave Milton-Freewater OR 97862-1501,Milton-Freewater,,OR,97862-1501,(541) 938-8247,(541) 938-8254,librarycirculation@milton-freewater-or.gov,http://www.mfcity.com/library,UCSLD,Lili,"Schmidt, Interim",(541) 938-8246,lili.schmidt@milton-freewater-or.gov,POINT (-118.385336 45.927644),57,29,2413
Multnomah County Library - Northwest Library,Multnomah County Library,Northwest Library,2300 NW Thurman St. Portland OR 97210,2300 NW Thurman St.,Portland,Multnomah County,OR,97210,Public,,,,,,,,,,NONE,Kim,Anderson,503-988-4110,kimbera@multcolib.org,POINT (-122.69920000000002 45.535497),33,17,2410
Jackson County Library Services - Shady Cove Library,Jackson County Library Services,Shady Cove Library,22477 Highway 62 Shady Cove OR 97539,22477 Highway 62,Shady Cove,Jackson,OR,97539,Public,PO Box 502 Shady Cove  97539,Shady Cove,Jackson,,97539,(541) 878-2270,(541) 878-2270,info@jcls.org,http://www.jcls.org,NONE,Marion,Mensing,(541) 878-2270,mmensing@jcls.org,POINT (-122.80803300000001 42.623572),55,28,2367
State of Oregon Law Library,State of Oregon Law Library,,1163 State St. Salem OR 97301,1163 State St.,Salem,Marion,OR,97301,Special,1163 State St. Salem OR 97301,Salem,Marion,OR,97301,(503) 986-5640,,state.law.library@ojd.state.or.us,http://oregon.gov/soll,,Cathryn,Bowie,,,POINT (-123.02779699999999 44.937175),21,11,2409
Pacific Bible College,Pacific Bible College,,"28 Fir St., Suite 212 Medford OR 97501","28 Fir St., Suite 212",Medford,Jackson,OR,97501,Academic,"28 Fir St., Suite 212 Medford  97501",Medford,Jackson,,97501,541-776-9942,541-770-9065,library@pacificbible.com,https://pacificbible.edu/academics/library/,,Terry,Pruett,541-826-4553,terry.p@pacificbible.com,POINT (-122.87364899999999 42.324841),6,3,2367
Banks Public Library,Banks Public Library,,42461 NW Market St Banks   OR 97106,42461 NW Market St,Banks,Washington,OR,97106,Public,42461 NW Market St Banks OR 97106,Banks,,OR,97106,(503) 324-1382,(503) 324-7017,,http://www.wccls.org,WCCLS,Denise,Holmes,(503) 324-1382,deniseh@wccls.org,POINT (-123.114111 45.61968400000001),32,16,724
Douglas County Law Library,Douglas County Law Library,,1036 SE Douglas Street Roseburg OR 97470,1036 SE Douglas Street,Roseburg,Douglas,OR,97470,Special,1036 SE Douglas Street Justice Building - Room 305 Roseburg OR 97470,Roseburg,Douglas,OR,97470,(541) 440-4341,,dclawlib@co.douglas.or.us,http://www.co.douglas.or.us/lawlib/,,,,,,POINT (-123.34152900000001 43.210272),2,1,2363
Sandy Public Library - Hoodland Library,Sandy Public Library,Hoodland Library,24525 E Welches Rd Welches OR 97067,24525 E Welches Rd,Welches,Clackamas,OR,97067,Public,PO Box 298 Welches  OR 97067,Welches,Clackamas,OR,97067,(503) 622-3460,,,http://www.ci.sandy.or.us/library,LINCC,Sarah,McIntyre,(503) 668-5537,smcintyre@ci.sandy.or.us,POINT (-121.963356 45.34582900000001),52,26,2317
Portland Community College - Cascade Campus,Portland Community College,Cascade Campus,705 N Killingsworth Portland OR 97217-2399,705 N Killingsworth,Portland,,OR,97217-2399,Academic,PO Box 19000 Portland  97280-0990,Portland,,,97280-0990,971 722 5322,,https://www.pcc.edu/library/about/people/contact/email-a-librarian/,http://www.pcc.edu/library/,,Michelle,Bagley,971-722-4497,michelle.bagley@pcc.edu,POINT (-122.67424 45.562691),43,22,2410
Silver Falls Library District,Silver Falls Library District,,410 S Water St Silverton OR 97381,410 S Water St,Silverton,Marion,OR,97381,Public,410 S Water St Silverton OR 97381,Silverton,,OR,97381,(503) 873-5173,(503) 873-6227,silvfals@ccrls.org,http://www.silverfallslibrary.org,CCRLS,Christy,Davis,(503) 873-5770,christy.davis@ccrls.org,POINT (-122.781135 45.002907),18,9,2409
Coos Bay Public Library,Coos Bay Public Library,,525 Anderson Coos Bay OR 97420,525 Anderson,Coos Bay,Coos,OR,97420,Public,525 Anderson Coos Bay OR 97420,Coos Bay,,OR,97420,(541) 269-1101,(541) 269-7567,bayref@coastlinelibrarynetwork.org,http://www.coosbaylibrary.org,CCLSD,Samantha,Pierson,(541) 269-1101 ext 229,spierson@coastlinelibrarynetwork.org,POINT (-124.217207 43.367189),9,5,2320
Oakland City Library,Oakland City Library,,637 NE Locust St Oakland OR 97462,637 NE Locust St,Oakland,Douglas County,OR,97462,Public,,,,,,(541) 459-9784,,oaklandlibraryadvisoryboard@gmail.com,,NONE,Melody,Rudenko,541-829-3294,melodyrudenko@gmail.com,POINT (-123.294031 43.423768),7,4,2363
Mt. Angel Public Library,Mt. Angel Public Library,,290 E. Charles St Mt. Angel OR 97362,290 E. Charles St,Mt. Angel,Marion,OR,97362,Public,P.O. Box 870 Mt. Angel OR 97362,Mt. Angel,,OR,97362,(503) 845-6401,,library.mountangel@ccrls.org,http://mountangel.ccrls.org/,CCRLS,Jackie,Mills,(503) 845-6401,jackie.mills@ccrls.org,POINT (-122.797871 45.067809),18,9,2409
Multnomah County Library - Belmont Library,Multnomah County Library,Belmont Library,1038 SE Cesar Chavez BLVD Portland OR 97214,1038 SE Cesar Chavez BLVD,Portland,Multnomah,OR,97214,Public,,,,,,503.988.5123,,,,NONE,Matthew,Yake,503.988.6124,matthewy@multcolib.org,POINT (-122.62292300000001 45.515215),42,21,2410
Albany Public Library - Albany Downtown Carnegie Library,Albany Public Library,Albany Downtown Carnegie Library,302 Ferry Street SW Albany OR 97321,302 Ferry Street SW,Albany,Linn,OR,97321,Public,301 Ferry Street SW Albany  97321,Albany,,,97321,(541) 917-7585,(541) 917-7586,AskAlbany@cityofalbany.net,http://library.cityofalbany.net,NONE,Ed,Gallagher,(541) 917-7589,ed.gallagher@cityofalbany.net,POINT (-123.10830499999999 44.635202),15,8,2407
Forest Grove City Library,Forest Grove City Library,,2114 Pacific Ave Forest Grove OR 97116,2114 Pacific Ave,Forest Grove,Washington,OR,97116,Public,2114 Pacific Ave Forest Grove OR 97116,Forest Grove,,OR,97116,(503) 992-3247,(503) 992-3333,,https://www.forestgrove-or.gov/library,WCCLS,Colleen,Winters,(503) 992-3246,cwinters@forestgrove-or.gov,POINT (-123.109846 45.51966),29,15,724
Klamath County Library - Merrill Branch Library,Klamath County Library,Merrill Branch Library,365 W Front St Merrill OR 97633,365 W Front St,Merrill,Klamath,OR,97633,Public,,,,,,(541) 798-5393,(541) 798-5393,merrillstaff@klamathlibrary.org,http://www.klamathlibrary.org,NONE,Nathalie,Johnston,(541) 882-8894 ext 26,njohnston@klamathlibrary.org,POINT (-121.603543 42.023979),56,28,2369
Newport Public Library,Newport Public Library,,35 NW Nye St Newport  OR 97365,35 NW Nye St,Newport,Lincoln,OR,97365,Public,35 NW Nye St Newport OR 97365,Newport,Lincoln,OR,97365,(541) 265-2153,,reference@newportlibrary.org,http://www.newportlibrary.org,LCLD,Laura,Kimberly,(541) 574-0600,l.kimberly@newportlibrary.org,POINT (-124.05564300000002 44.636986),10,5,2372
Southern Wasco County Library,Southern Wasco County Library,,410 Deschutes Ave Maupin OR 97037,410 Deschutes Ave,Maupin,Wasco,OR,97037,Public,PO Box 328 Maupin OR 97037,Maupin,,OR,97037,(541) 395-2208,,southernwascolibrary@gmail.com,http://wascocountylibrary.com/,WCLSD,Bronte,Dod,(541) 395-2208,southernwascolibrary@gmail.com,POINT (-121.080502 45.17542),59,30,2451
Deschutes Public Library System - East Bend Library,Deschutes Public Library System,East Bend Library,62080 Dean Swift Road Bend OR 97701,62080 Dean Swift Road,Bend,Deschutes,OR,97701,Public,62080 Dean Swift Road Bend OR 97701,Bend,Deschutes,OR,97701,(541) 330-3760,,,http://www.deschuteslibrary.org/eastbend/,NONE,Todd,Dunkelberg,(541) 312-1021,toddd@dpls.us,POINT (-121.271204 44.054358),54,27,2362
McMinnville Public Library,McMinnville Public Library,,225 NW Adams St McMinnville OR 97128,225 NW Adams St,McMinnville,Yamhill,OR,97128,Public,225 NW Adams St McMinnville OR 97128,McMinnville,,OR,97128,(503) 435-5555,,libref@mcminnvilleoregon.gov,http://www.maclibrary.org,CCRLS,Jenny,Berg,(503) 435.5550,Jenny.Berg@mcminnvilleoregon.gov,POINT (-123.199131 45.209385),24,12,2453
Jackson County Library Services - Phoenix Branch Library,Jackson County Library Services,Phoenix Branch Library,510 W 1st St Phoenix OR 97535,510 W 1st St,Phoenix,Jackson,OR,97535,Public,PO Box 277 Phoenix  97535,Phoenix,Jackson,,97535,(541) 535-7090,(541) 535-7090,info@jcls.org,http://www.jcls.org,NONE,Jody,Fleming,(541) 535-7090,jfleming@jcls.org,POINT (-122.819462 42.27156),5,3,2367
Cedar Mill Community Library,Cedar Mill Community Library,,12505 NW Cornell Rd Suite 13 Portland  OR 97229,12505 NW Cornell Rd Suite 13,Portland,Washington,OR,97229,Public,12505 NW Cornell Rd Suite 13 Portland OR 97229,Portland,,OR,97229,(503) 644-0043,(503) 644-3964,cedarmill@wccls.org,http://library.cedarmill.org/,WCCLS,Peter,Leonard,(503) 644-0043 ext 110,peterl@wccls.org,POINT (-122.80546099999998 45.525705),33,17,724
Wallowa Public Library,Wallowa Public Library,,201 East 1st St Wallowa OR 97885,201 East 1st St,Wallowa,Wallowa,OR,97885,Public,PO Box 486 Wallowa  OR 97885,Wallowa,,OR,97885,(541) 886-4265,541-886-4565,wallowapubliclibrary@gmail.com,http://galepages.com/wallowa,NONE,Debbie,Lind,(541) 886-4265,wallowapubliclibrary@gmail.com,POINT (-117.527758 45.570181),58,29,2450
Chemeketa Cooperative Regional Library Service,Chemeketa Cooperative Regional Library Service,,4000 Lancaster Dr NE Salem OR 97305,4000 Lancaster Dr NE,Salem,Marion,OR,97305,Public,PO Box 14007 Salem OR 97309,Salem,,OR,97309,(503) 399-5165,(503) 399-7316,jgoodyear@ccrls.org,http://www.ccrls.org,CCRLS,John,Goodyear,(503) 315-4584,jgoodyear@ccrls.org,POINT (-122.98339199999998 44.976331),22,11,2409
Clatsop County Law Library,Clatsop County Law Library,,749 Commercial St Astoria OR 97103,749 Commercial St,Astoria,Clatsop,OR,97103,Special,749 Commercial St PO Box 910 Astoria OR 97103,Astoria,Clatsop,OR,97103,(503) 325-8601,,cscheick@co.clatsop.or.us,,,Janet,Evans,,,POINT (-123.835192 46.189098),32,16,
Driftwood Public Library,Driftwood Public Library,,801 SW Hwy 101 Lincoln City OR 97367,801 SW Hwy 101,Lincoln City,Lincoln,OR,97367,Public,801 SW Hwy 101 #201 Lincoln City OR 97367,Lincoln City,,OR,97367,(541) 996-2277,,librarian@driftwoodlib.org,http://www.driftwoodlib.org,LCLD,Kirsten,Brodbeck-Kenney,(541) 996-1251,kbrodbeck-kenney@lincolncity.org,POINT (-124.014782 44.961023),10,5,2372
West Linn Public Library,West Linn Public Library,,1595 Burns St West Linn OR 97068,1595 Burns St,West Linn,Clackamas,OR,97068,Public,1595 Burns St West Linn OR 97068,West Linn,,OR,97068,(503) 656-7853,(503) 742-8632,wlref@lincc.org,http://westlinnoregon.gov/library/,LINCC,Doug,Erickson,(503) 742-6165,derickson@westlinnoregon.gov,POINT (-122.613807 45.367345),37,19,2317
Wilsonville Public Library,Wilsonville Public Library,,8200 SW Wilsonville Rd  Wilsonville OR 97070,8200 SW Wilsonville Rd,Wilsonville,Clackamas,OR,97070,Public,8200 SW Wilsonville Rd  Wilsonville OR 97070,Wilsonville,,OR,97070,(503) 682-2744,(503) 682-8685,reference@wilsonvillelibrary.org,http://www.wilsonvillelibrary.org,LINCC,Patrick,Duke,(503) 570-1590,duke@wilsonvillelibrary.org,POINT (-122.760939 45.302907),26,13,2317
Portland State University Library - Branford P. Millar Library,Portland State University Library,Branford P. Millar Library,1875 SW Park Avenue Portland OR 97201,1875 SW Park Avenue,Portland,Multnomah,OR,97201,Academic,PO Box 1151 Portland  97207-1151,Portland,,,97207-1151,503-725-5874,503-725-4524,,https://library.pdx.edu/,,Tom,Bielavitz,503-725-4616,bielavit@pdx.edu,POINT (-122.68568400000001 45.511326),36,18,2410
Pendleton Public Library,Pendleton Public Library,,502 SW Dorion Ave Pendleton OR 97801,502 SW Dorion Ave,Pendleton,Umatilla,OR,97801,Public,502 SW Dorion Ave Pendleton OR 97801,Pendleton,,OR,97801,(541) 966-0380,(541) 966-0382,jennifer.costley@ci.pendleton.or.us,http://www.pendletonlibrary.weebly.com,UCSLD,Jennifer,Costley,(541) 966-0380,jennifer.costley@ci.pendleton.or.us,POINT (-118.791573 45.670235),58,29,2413
Echo Public Library,Echo Public Library,,20 S. Bonanza Echo OR 97826,20 S. Bonanza,Echo,Umatilla,OR,97826,Public,PO Box 9 Echo OR 97826,Echo,,OR,97826,(541) 376-8411,(541) 376-8218,ecpl@centurytel.net,http://www.echo-oregon.com,UCSLD,David,Slaght,(541) 376-8411,dave@centurytel.net,POINT (-119.195059 45.741821),58,29,2413
Independence Public Library,Independence Public Library,,175 Monmouth St Independence OR 97351,175 Monmouth St,Independence,Polk,OR,97351,Public,175 Monmouth St Independence OR 97351,Independence,,OR,97351,(503) 838-1811,(503) 838-4486,robinp@ccrls.org,http://www.ci.independence.or.us/library,CCRLS,Robin,Puccetti,(503) 838-1811 ext 204,robinp@ccrls.org,POINT (-123.18569900000001 44.851123),20,10,723
Salem Public Library,Salem Public Library,,585 Liberty St SE Salem OR 97301,585 Liberty St SE,Salem,Marion,OR,97301,Public,585 Liberty St SE Salem OR 97301,Salem,Marion,OR,97301,(503) 588-6315,(503) 589-2011,library@cityofsalem.net,http://www.salemlibrary.org,CCRLS,Sarah,Strahl,(503) 588-6084,sstrahl@cityofsalem.net,POINT (-123.041201 44.935281),21,11,2409
Willamette University - Mark O. Hatfield Library,Willamette University,Mark O. Hatfield Library,900 State St. Salem OR 97301-3930,900 State St.,Salem,Marion,OR,97301-3930,Academic,900 State St. Salem  97301-3930,Salem,,,97301-3930,503-370-6312,503-370-6141,,http://library.willamette.edu/,,Craig,Milberg,503-370-6312,cmilberg@willamette.edu,POINT (-123.029549 44.937624),21,11,2409
Pacific University Library,Pacific University Library,,2043 College Way Forest Grove OR 97116-1797,2043 College Way,Forest Grove,Washington,OR,97116-1797,Academic,,,,,,503-352-2204,503-352-1416,,http://www.lib.pacificu.edu/,,Isaac,Gilman,503-352-1401,gilmani@pacificu.edu,POINT (-123.11102199999999 45.521418),29,15,724
Klamath Community College - Learning Resource Center,Klamath Community College,Learning Resource Center,7390 S 6th St Klamath Falls OR 97603,7390 S 6th St,Klamath Falls,Klamath,OR,97603,Academic,,,,,,541-880-2206,541-885-7758,,https://www.klamathcc.edu/Academics/LRC,,Rick,Ball,541-880-2256,ballr@klamathcc.edu,POINT (-121.700743 42.197776),56,28,2369
Jackson County Library Services Business Office,Jackson County Library Services Business Office,,205 South Central Ave. Medford OR 97501,205 South Central Ave.,Medford,Jackson,OR,97501,Public,OR,,,OR,,(541) 774-8679,(541) 774-6748,info.@jcls.org,http://www.jcls.org,,Kari,May,(541) 774-6401,kmay@jcls.org,POINT (-122.870293 42.324522),6,3,2367
Lewis And Clark College - Paul L. Boley Law Library,Lewis And Clark College,Paul L. Boley Law Library,10015 SW Terwilliger Blvd Portland OR 97219-7799,10015 SW Terwilliger Blvd,Portland,Multnomah,OR,97219-7799,Academic,10015 SW Terwilliger Blvd. Portland  97219,Portland,Multnomah,,97219,503-768-6676,503-768-6671,lawlib@lclark.edu,http://library.lclark.edu/law?group_id=11380,,Rob,Truman,503-768-6780,rtruman@lclark.edu,POINT (-122.67973800000001 45.45288),38,19,2410
Stayton Public Library,Stayton Public Library,,515 N First Ave Stayton OR 97383,515 N First Ave,Stayton,Marion,OR,97383,Public,515 N First Ave Stayton OR 97383,Stayton,,OR,97383,(503) 769-3313,(503) 769-3218,staytonpl@ccrls.org,http://staytonlibrary.org/,CCRLS,Janna,Moser,(503) 769-3313 ext 101,jannam@ccrls.org,POINT (-122.794371 44.799125000000004),17,9,2409
Oregon Health & Science University,Oregon Health & Science University,,3181 SW Sam Jackson Park Rd - LIB Portland OR 97239-3098,3181 SW Sam Jackson Park Rd - LIB,Portland,Multnomah,OR,97239-3098,Academic,3181 SW Sam Jackson Park Rd - LIB Portland  97239-3098,Portland,Multnomah,,97239-3098,503-494-3462,503-494-3322,library@ohsu.edu,http://www.ohsu.edu/library,,Kristine,Alpi,503-494-0455,alpi@ohsu.edu,POINT (-122.68797400000001 45.499201),36,18,2410
Multnomah University - John & Mary Mitchell Library,Multnomah University,John & Mary Mitchell Library,8435 NE Glisan St Portland OR 97220-5898,8435 NE Glisan St,Portland,,OR,97220-5898,Academic,,,,,,503-251-5322,503-254-1268,,http://www.multnomah.edu/resources/campus-resources/mitchell-library/http://www.multnomah.edu,,Dr. Philip,Johnson,503-251-5323,pjohnson@multnomah.edu,POINT (-122.575939 45.526401),45,23,2410
Jefferson Public Library,Jefferson Public Library,,150 N 2nd Suite B Jefferson OR 97352,150 N 2nd Suite B,Jefferson,Marion,OR,97352,Public,PO Box 1068 Jefferson OR 97352,Jefferson,,OR,97352,(541) 327-3826,(541) 327-3120,jeffpl@ccrls.org,http://jefferson.ccrls.org/,CCRLS,Dillon,Peck,(541) 327-3826,dillon.peck@ccrls.org,POINT (-123.01022400000001 44.717906),23,12,2409
Enterprise Public Library,Enterprise Public Library,,101 NE First St Enterprise OR 97828,101 NE First St,Enterprise,Wallowa,OR,97828,Public,101 NE First St Enterprise OR 97828,Enterprise,,OR,97828,(541) 426-3906,(541) 426-3395,enterpl@eoni.com,http://www.enterpriseoregon.org,NONE,Denine,Rautenstrauch,(541) 426-3906,enterpl@eoni.com,POINT (-117.27630500000001 45.425804),58,29,2450
Multnomah County Library - Capitol Hill Library,Multnomah County Library,Capitol Hill Library,10723 SW Capitol Hwy Portland OR 97219,10723 SW Capitol Hwy,Portland,Multnomah County,OR,97219,Public,,,,,,503.988.5123,,,,NONE,Patti,Vincent,503.988.6996,pattiv@multcolib.org,POINT (-122.72501500000001 45.447853),38,19,2410
National Railway Historical Society Library - Pacific Northwest Chapter,National Railway Historical Society Library,Pacific Northwest Chapter,503 NW Irving St Portland OR 97209-3715,503 NW Irving St,Portland,Multnomah,OR,97209-3715,Special,"800 NW 6th Ave, Room 1 Portland OR 97209-3715",Portland,Multnomah,OR,97209-3715,(503) 226-6747,(503) 230-0572,library@pnwc-nrhs.org,http://www.pnwc-nrhs.org/library_main.html,,Ken,Vanice,(503) 226-6747,library@pnwc-nrhs.org,POINT (-122.675572 45.52807),36,18,2410
Tillamook County Library - Manzanita Branch Library,Tillamook County Library,Manzanita Branch Library,571 Laneda Manzanita OR 97130,571 Laneda,Manzanita,Tillamook County,OR,97130,Public,,,,,,503-368-6665,,,,NONE,Charlotte,Forster,,,POINT (-123.93162699999999 45.71921),32,16,2412
Lane Library District,Lane Library District,,64 W. Oregon Ave. Creswell OR 97426,64 W. Oregon Ave.,Creswell,Lane,OR,97426,Public,PO Box  366 Creswell OR 97426,Creswell,Lane,OR,97426,(541) 895-3053,(541) 895-3507,service.desk@creswell-library.org,http://www.creswell-library.org,NONE,Su,Liudahl,(541) 895-3053,director.su@creswell-library.org,POINT (-123.019651 43.91785),11,6,2371
Jackson County Library Services - Applegate Branch Library,Jackson County Library Services,Applegate Branch Library,18485 North Applegate Road Applegate OR 97527-9459,18485 North Applegate Road,Applegate,Jackson,OR,97527-9459,Public,,,,,,(541) 846-7346,(541) 846-7346,info@jcls.org,http://www.jcls.org,NONE,Christine,Grubb,(541) 846-7346,cgrubb@jcls.org,POINT (-123.176513 42.25802600000001),5,3,2367
Dora Public Library,Dora Public Library,,56125 Goldbrick Rd Myrtle Point OR 97458,56125 Goldbrick Rd,Myrtle Point,Coos,OR,97458,Public,56125 Goldbrick Rd Myrtle Point OR 97458,Myrtle Point,Coos,OR,97458,(541) 572-6009,(541) 572-3084,dorapublic@gmail.com,https://dorapubliclibrary.org/,CCLSD,Betty,Vaughn,541-572-6009,bvaughn@coastlinelibrarynetwork.org,POINT (-123.95013 43.144584),1,1,2320
Birthingway College of Midwifery,Birthingway College of Midwifery,,12113 SE Foster Rd Portland OR 97266,12113 SE Foster Rd,Portland,Multnomah,OR,97266,Academic,12113 SE Foster Rd Portland OR 97266,Portland,Multnomah,OR,97266,(503) 477-7427,(503)760-3131,library@birthingway.edu,http://birthingway.edu/library/,,Nora,Barnett,(503) 477-7427,nora@birthingway.edu,POINT (-122.53840699999999 45.476522),48,24,2410
Flora M. Laird Memorial Library,Flora M. Laird Memorial Library,,435 5th St Myrtle Point   OR 97458,435 5th St,Myrtle Point,Coos,OR,97458,Public,435 5th St Myrtle Point OR 97458,Myrtle Point,,OR,97458,(541) 572-2591,(541) 572-5168,myrtlepointlibrary@gmail.com,,CCLSD,Shanna,Allen,(541) 572-2591,sallen@coastlinelibrarynetwork.org,POINT (-124.142125 43.063877),1,1,2320
Happy Valley Library,Happy Valley Library,,13793 SE Sieben Park Way Happy Valley OR 97015,13793 SE Sieben Park Way,Happy Valley,Clackamas,OR,97015,Public,13793 SE Sieben Park Way Happy Valley OR 97015,Happy Valley,,OR,97015,503 -783-3456,,library@happyvalleyor.gov,http://www.happyvalleyor.gov/index.aspx?nid=346,LINCC,Doris,Grolbert,(503) 783-3461,dorisg@happyvalleyor.gov,POINT (-122.51371299999998 45.42195100000001),51,26,2317
Jackson County Library Services - Gold Hill Branch Library,Jackson County Library Services,Gold Hill Branch Library,202 Dardanelles Street Gold Hill OR 97525,202 Dardanelles Street,Gold Hill,Jackson,OR,97525,Public,PO Box 258 Gold Hill  97525,Gold Hill,Jackson,,97525,(541) 855-1994,(541) 855-1994,info@jcls.org,http://www.jcls.org,NONE,Lorna,Hilke,(541) 855-1994,lhilke@jcls.org,POINT (-123.048847 42.431456000000004),4,2,2367
Walla Walla University - Portland Campus Library,Walla Walla University,Portland Campus Library,10345 SE Market Portland OR 97216-2998,10345 SE Market,Portland,,OR,97216-2998,Academic,,,,,,503-251-6115 X 17306,503-251-6249,,https://www.wallawalla.edu/academics/libraries/portland-library/,,,,,,POINT (-122.55646399999999 45.510636000000005),46,23,2410
Dallas Public Library,Dallas Public Library,,950 Main St Dallas OR 97338,950 Main St,Dallas,Polk,OR,97338,Public,950 Main St Dallas OR 97338,Dallas,,OR,97338,(503) 623-2633,(503) 623-7357,dalref@ccrls.org,http://www.ci.dallas.or.us/library,CCRLS,Mark,Greenhalgh-Johnson,(503) 831-3545,mark.johnson@dallasor.gov,POINT (-123.31666600000001 44.91999800000001),23,12,723
Ontario Community Library,Ontario Community Library,,388 SW 2nd Ave Ontario   OR 97914,388 SW 2nd Ave,Ontario,Malheur,OR,97914,Public,388 SW 2nd Ave Ontario OR 97914,Ontario,,OR,97914,(541) 889-6371,(541) 889-4279,malheurlibrarystaff@yahoo.com,http://www.ontariocommunitylibrary.org/,NONE,Darlyne,Johnson,(541) 889-6371 ext 102,ontariolibrarydirector@gmail.com,POINT (-116.968141 44.025617),60,30,2408
Rainier City Library,Rainier City Library,,106 B St Rainier OR 97048,106 B St,Rainier,Columbia,OR,97048,Public,PO Box 100 Rainier OR 97048,Rainier,,OR,97048,(503) 556-7301,(503) 556-3200,,http://www.cityofrainier.com/?view=library,NONE,Elizabeth,Mendez,(503) 556-7301,elizabeth_mendez@rsd.k12.or.us,POINT (-122.936023 46.089156),31,16,2319
Baker County Public Library - Haines Branch Library,Baker County Public Library,Haines Branch Library,818 Cole St. Haines OR 97833,818 Cole St.,Haines,Baker,OR,97833,Public,,,,,,(541) 856-3309,,haines@bakerlib.org,,NONE,,,,,POINT (-117.93790600000001 44.912859),60,30,2315
University Of Oregon - Mathematics Library,University Of Oregon,Mathematics Library,1021 East 13th Ave Eugene OR 97403-3914,1021 East 13th Ave,Eugene,Lane County,OR,97403-3914,Academic,,,,,,541-346-3023,,,,,,,,,POINT (-123.068223 44.045523),11,6,2371
Hood River County Library District - Parkdale Branch Library,Hood River County Library District,Parkdale Branch Library,7300 Clear Creek Road Parkdale OR 97041,7300 Clear Creek Road,Parkdale,Hood River County,OR,97041,Public,502 State St Hood River  97031,Hood River,Hood River,,97031,541-352-6502,,info@hoodriverlibrary.org,http://www.hoodriverlibrary.org/,NONE,,,,,POINT (-121.59704400000001 45.518732),52,26,2366
Oregon Trail Library District - OTLD Irrigon Branch,Oregon Trail Library District,OTLD Irrigon Branch,490 NE Main Street Irrigon OR 97844,490 NE Main Street,Irrigon,Morrow,OR,97844,Public,PO Box 9 Irrigon  97844,Irrigon,Morrow,,97844,(541)922-0138,(541)922-6300,lhauner@otld.org,http://oregontrail.ploud.net/,NONE,Kathy,Street,541-481-3365,kstreet@otld.org,POINT (-119.49533200000002 45.895802),57,29,722
Helix Public Library,Helix Public Library,,119 Columbia St Helix OR 97835,119 Columbia St,Helix,Umatilla,OR,97835,Public,PO Box 324 Helix OR 97835,Helix,Umatilla,OR,97835,(541) 457-6130,(541) 457-6130,helixlibrary@helixtel.com,http://helixlibrary.weebly.com,UCSLD,Annette,Kubishta,(541) 457-6130,helixlibrary@helixtel.com,POINT (-118.65765399999998 45.849623),58,29,2413
Lake County Library District,Lake County Library District,,26 S. G St. Lakeview OR 97630,26 S. G St.,Lakeview,Lake,OR,97630,Public,26 S. G St. Lakeview OR 97630,Lakeview,,OR,97630,(541) 947-6019,(541) 947-2346,info@lakecountylibrary.org,http://www.lakecountylibrary.org,NONE,Amy,Hutchinson,(541) 947-6019,amyh@lakecountylibrary.org,POINT (-120.34701999999999 42.188937),56,28,2370
Oregon OSHA Resource Center,Oregon OSHA Resource Center,,350 Winter St NE Salem OR 97301,350 Winter St NE,Salem,Marion,OR,97301,Special,350 Winter St NE Salem OR 97301,Salem,Marion,OR,97301,1-800-922-2689,(503) 947-7463,osha.resource@state.or.us,http://www.orosha.org/standards/resource_center.html,,Jane,Kirby,(503) 947-7456,jane.s.kirby@state.or.us,POINT (-123.03083800000002 44.94127),21,11,2409
Canby Public Library,Canby Public Library,,220 NE 2nd Ave Canby OR 97013,220 NE 2nd Ave,Canby,Clackamas,OR,97013,Public,220 NE 2nd Ave Canby OR 97013,Canby,Clackamas,OR,97013,(503) 266-3394,(503) 266-1709,CanbyInfo@lincc.org,http://www.canbylibrary.org,LINCC,Irene,Green,(503) 266-0655,greeni@canbyoregon.gov,POINT (-122.691769 45.264098),39,20,2317
Warm Springs Community Library,Warm Springs Community Library,,1144 Warm Springs Street Warm Springs OR 97761,1144 Warm Springs Street,Warm Springs,Jefferson,OR,97761,Tribal,1144 Warm Springs Street PO Box C Warm Springs OR 97761,Warm Springs,Jefferson,OR,97761,541-553-1078,,,http://wslibrary.follettdestiny.com,,Craig,Graham,541-553-1078,craig.graham@wstribes.org,POINT (-121.26919100000002 44.763461),59,30,721
Mount Angel Abbey,Mount Angel Abbey,,1 Abbey Drive Saint Benedict OR 97373-9999,1 Abbey Drive,Saint Benedict,,OR,97373-9999,Academic,,,,,,503-845-3102,503-845-3500,,http://www.mountangelabbey.org/library,,Victoria,Ertalt,,victoria.ertelt@mtangel.edu,POINT (-122.774968 45.05612300000001),18,9,2409
Lane County Law Library,Lane County Law Library,,125 East 8th Avenue Eugene OR 97401,125 East 8th Avenue,Eugene,Lane,OR,97401,Special,125 East 8th Avenue Public Service Building Eugene OR 97401,Eugene,Lane,OR,97401,(541) 682-4337,(541) 682-4315,lclawlib@co.lane.or.us,http://www.lanecounty.org/lawlibrary,,Sue,Ludington,(541) 682-4331,lclawlib@co.lane.or.us,POINT (-123.09044099999998 44.050993),13,7,2371
Adams Public Library,Adams Public Library,,190 North Main Street Adams OR 97810,190 North Main Street,Adams,Umatilla,OR,97810,Public,PO Box 20 Adams OR 97810,Adams,Umatilla,OR,97810,(541) 566-3038,(541) 566-2077,library@cityofadamsoregon.com,http://www.cityofadamsoregon.com,UCSLD,Stephanie,Partida,541-566-3038,library@cityofadamsoregon.com,POINT (-118.563074 45.767369),58,29,2413
Curry Public Library District,Curry Public Library District,,94341 3rd Street Gold Beach OR 97444,94341 3rd Street,Gold Beach,Curry,OR,97444,Public,94341 3rd Street Gold Beach OR 97444,Gold Beach,,OR,97444,(541) 247-7246,(541) 247-4411,currylibrary@cplib.net,http://www.currypubliclibrary.org,NONE,Jeremy,Skinner,541- 247-3452,jeremy@cplib.net,POINT (-124.41558300000001 42.41264),1,1,2321
Bandon Public Library,Bandon Public Library,,1204 11th St SW Bandon  OR 97411,1204 11th St SW,Bandon,Coos,OR,97411,Public,1204 11th St SW Bandon OR 97411,Bandon,,OR,97411,(541) 347-3221,(541) 347-9363,,https://www.cityofbandon.org/general/page/library,CCLSD,Rosalyn,McGarva,(541) 347-3022,rmcgarva@coastlinelibrarynetwork.org,POINT (-124.42974800000002 43.11347),1,1,2320
Umatilla Public Library,Umatilla Public Library,,700 6th St Umatilla OR 97882,700 6th St,Umatilla,Umatilla,OR,97882,Public,PO Box 820 Umatilla OR 97882,Umatilla,,OR,97882,(541) 922-5704,(541) 922-5708,library@umatilla-city.org,http://www.umatillapubliclibrary.weebly.com,UCSLD,Kellie,Lamoreaux,(541) 922-5704,library@umatilla-city.org,POINT (-119.34469300000002 45.917184),57,29,2413
Siuslaw Public Library District - Mapleton Branch Library,Siuslaw Public Library District,Mapleton Branch Library,88148 Riverview Avenue Mapleton OR 97453,88148 Riverview Avenue,Mapleton,Lane County,OR,97453,Public,,,,,,(541) 268-4033,,,,NONE,Kevin,Mittge,(541) 997-3132,mapletonbranch@siuslawlibrary.org,POINT (-123.86251900000002 44.036656),9,5,2371
Confederated Tribes of Grand Ronde Library,Confederated Tribes of Grand Ronde Library,,9615 Grand Ronde Road Grand Ronde OR 97347,9615 Grand Ronde Road,Grand Ronde,Polk,OR,97347,Tribal,9615 Grand Ronde Road Grand Ronde OR 97347,Grand Ronde,Polk,OR,97347,503-879-1488,503 879-2286,Harris.Reibach@grandronde.org,http://www.grandronde.org/departments/education/library/,,Harris,Reibach,503 879-1488,Harris.Reibach@grandronde.org,POINT (-123.611844 45.074677),10,5,723
Lebanon Public Library,Lebanon Public Library,,55 Academy Street Lebanon OR 97355,55 Academy Street,Lebanon,Linn,OR,97355,Public,55 Academy Street Lebanon OR 97355,Lebanon,,OR,97355,(541) 258-4926,,libraryinfo@ci.lebanon.or.us,http://www.ci.lebanon.or.us/library,NONE,Kendra,Antila,(541) 258-4232,kantila@ci.lebanon.or.us,POINT (-122.90830699999998 44.544247000000006),17,9,2407
Multnomah County Library - Hillsdale Library,Multnomah County Library,Hillsdale Library,1525 SW Sunset Blvd. Portland OR 97239,1525 SW Sunset Blvd.,Portland,Multnomah County,OR,97239,Public,,,,,,,,,,NONE,Jay,Hadley,(503)988-4394,jayh@multcolib.org,POINT (-122.694363 45.479687),36,18,2410
Scappoose Public Library,Scappoose Public Library,,52469 SE 2nd St Scappoose OR 97056,52469 SE 2nd St,Scappoose,Columbia,OR,97056,Public,PO Box 400 Scappoose OR 97056,Scappoose,,OR,97056,(503) 543-7123,(503) 543-7161,scappl@scappooselibrary.org,http://www.scappooselibrary.org,NONE,Jeff,Weiss,(503) 543-7123,jweiss@scappooselibrary.org,POINT (-122.876321 45.756581),31,16,2319
Confederated Tribes of Umatilla Library,Confederated Tribes of Umatilla Library,,47106 Wildhorse Blvd. Pendleton OR 97801,47106 Wildhorse Blvd.,Pendleton,Umatilla,OR,97801,Tribal,47106 Wildhorse Blvd. Tamastslikt Cultural Institute Pendleton OR 97801,Pendleton,Umatilla,OR,97801,(541) 429-7721,,malissa.minthorn@tamastslikt.org,http://www.tamastslikt.org,,Malissa,Minthorn-Winks,(541) 429-7721,malissa.minthorn@tamastslikt.org,POINT (-118.664803 45.650663),58,29,2413
Washington County Cooperative Library Services,Washington County Cooperative Library Services,,"111 NE Lincoln St., MS# 58 Hillsboro OR 97124","111 NE Lincoln St., MS# 58",Hillsboro,Washington,OR,97124,Public,"111 NE Lincoln St, MS# 58 Hillsboro OR 97124",Hillsboro,,OR,97124,(503) 846-3222,(503) 846-3220,webmaster@wccls.org,http://www.wccls.org,WCCLS,Lisa,Tattersall,(503) 846-3233,lisat@wccls.org,POINT (-122.989303 45.523946),29,15,724
Gilliam County Public Library,Gilliam County Public Library,,134 S Main Condon OR 97823,134 S Main,Condon,Gilliam,OR,97823,Public,PO Box 34 Condon OR 97823,Condon,Gilliam,OR,97823,(541) 384-6052,(541) 384-6052,gclibrary@co.gilliam.or.us,http://www.co.gilliam.or.us/library.html,NONE,Mary,Reser,(541) 384-6052,mary.reser@co.gilliam.or.us,POINT (-120.184831 45.237483),57,29,2364
